{
  "type": "Feature",
  "properties": {
    "name": "Wupper north bank, Barmen",
    "source": "https://sgx.geodatenzentrum.de/gdz_basemapde_vektor/tiles/v2/bm_web_de_3857/bm_web_de_3857.json",
    "sourceLayer": "Gewaesserflaeche",
    "sourceFilter": "name=Wupper; kennung=2736000000000000000",
    "captured": "2026-09-13",
    "attribution": "© 2026 basemap.de / BKG; data: © GeoBasis-DE",
    "derivation": "Northern boundary arc of the unioned/clipped water polygons. Source vertices retained; no Schwebebahn offset. Heights are not part of this 2D source."
  },
  "geometry": {
    "type": "LineString",
    "coordinates": [
      [
        7.1938,
        51.268761224432886
      ],
      [
        7.193987495086017,
        51.26883943068438
      ],
      [
        7.193987667560577,
        51.26883950283133
      ],
      [
        7.19398766805426,
        51.26883950283133
      ],
      [
        7.194438278675079,
        51.26902745745076
      ],
      [
        7.194481194019318,
        51.26904759540014
      ],
      [
        7.194524109363556,
        51.269071089663214
      ],
      [
        7.194569706916809,
        51.26909794023487
      ],
      [
        7.194615304470062,
        51.26913150342739
      ],
      [
        7.194687724113464,
        51.26919023895536
      ],
      [
        7.1947842836380005,
        51.269274146722154
      ],
      [
        7.195031046867371,
        51.26940000808514
      ],
      [
        7.195130288600922,
        51.269445318091414
      ],
      [
        7.195221483707428,
        51.26948559361506
      ],
      [
        7.195350229740143,
        51.26953593796995
      ],
      [
        7.195680141448975,
        51.2696601204762
      ],
      [
        7.195811569690704,
        51.269712142777735
      ],
      [
        7.195889353752136,
        51.26973899297485
      ],
      [
        7.195948362350464,
        51.269757452476256
      ],
      [
        7.1960073709487915,
        51.26977591197027
      ],
      [
        7.196071743965149,
        51.26979101518711
      ],
      [
        7.196138799190521,
        51.26980444026455
      ],
      [
        7.1962085366249084,
        51.26981618720413
      ],
      [
        7.1962809562683105,
        51.26982793414069
      ],
      [
        7.1963560581207275,
        51.26983632480781
      ],
      [
        7.196433842182159,
        51.26984303734042
      ],
      [
        7.196471393108368,
        51.26984639360634
      ],
      [
        7.196503579616547,
        51.269849749872066
      ],
      [
        7.19653844833374,
        51.26985142800481
      ],
      [
        7.196629643440247,
        51.26985478427014
      ],
      [
        7.196726202964783,
        51.269856462402714
      ],
      [
        7.196846902370453,
        51.26985478427014
      ],
      [
        7.196967601776123,
        51.26984303734042
      ],
      [
        7.197136580944061,
        51.269809474667596
      ],
      [
        7.197367250919342,
        51.269769199427856
      ],
      [
        7.197600603103638,
        51.26972892415276
      ],
      [
        7.19791442155838,
        51.26967186745267
      ],
      [
        7.1979546546936035,
        51.26966515489505
      ],
      [
        7.198220193386078,
        51.26961648882306
      ],
      [
        7.198488414287567,
        51.26957117898556
      ],
      [
        7.1985045075416565,
        51.26956950084258
      ],
      [
        7.198646664619446,
        51.26955271940935
      ],
      [
        7.198772728443146,
        51.26954097240241
      ],
      [
        7.19891220331192,
        51.26953090353692
      ],
      [
        7.199059724807739,
        51.269527547247975
      ],
      [
        7.199132144451141,
        51.269527547247975
      ],
      [
        7.199207246303558,
        51.26952922539249
      ],
      [
        7.19928503036499,
        51.26953258168135
      ],
      [
        7.199368178844452,
        51.269539294258294
      ],
      [
        7.199539840221405,
        51.26955775383993
      ],
      [
        7.199738323688507,
        51.2695862822697
      ],
      [
        7.199875116348267,
        51.26960809811578
      ],
      [
        7.199998497962952,
        51.26962991395152
      ],
      [
        7.2000280022621155,
        51.269634948373664
      ],
      [
        7.200113832950592,
        51.26965172977691
      ],
      [
        7.200170159339905,
        51.26966347675551
      ],
      [
        7.200239896774292,
        51.26968361442613
      ],
      [
        7.200272083282471,
        51.2696953613966
      ],
      [
        7.20029890537262,
        51.26970878650201
      ],
      [
        7.2005027532577515,
        51.269809474667596
      ],
      [
        7.200730741024017,
        51.269926943915266
      ],
      [
        7.201312780380249,
        51.270207190764836
      ],
      [
        7.201991379261017,
        51.27048072346679
      ],
      [
        7.202,
        51.27048399226516
      ]
    ]
  }
}
