{
  "type": "Feature",
  "properties": {
    "name": "Wupper water surface, Barmen",
    "source": "https://sgx.geodatenzentrum.de/gdz_basemapde_vektor/tiles/v2/bm_web_de_3857/bm_web_de_3857.json",
    "sourceLayer": "Gewaesserflaeche",
    "sourceFilter": "name=Wupper; kennung=2736000000000000000",
    "captured": "2026-09-13",
    "attribution": "© 2026 basemap.de / BKG; data: © GeoBasis-DE",
    "derivation": "Union of MapLibre querySourceFeatures results at [7.1978,51.2696], zoom 15; clipped to [7.1938,51.2680,7.202,51.2715]. Includes under-bridge water polygons."
  },
  "geometry": {
    "type": "Polygon",
    "coordinates": [
      [
        [
          7.1938,
          51.26850463127685
        ],
        [
          7.193966209888458,
          51.26856596035984
        ],
        [
          7.194245159626007,
          51.26867504190869
        ],
        [
          7.194497287273407,
          51.26877908868323
        ],
        [
          7.194626033306122,
          51.26883614649185
        ],
        [
          7.194727957248688,
          51.26888649155825
        ],
        [
          7.194811105728149,
          51.26893180207088
        ],
        [
          7.1948835253715515,
          51.26897543437411
        ],
        [
          7.194996178150177,
          51.269055986209736
        ],
        [
          7.195012271404266,
          51.26906773334065
        ],
        [
          7.195100784301758,
          51.269121434472225
        ],
        [
          7.195248305797577,
          51.26920030789546
        ],
        [
          7.195446789264679,
          51.26930770978598
        ],
        [
          7.19554603099823,
          51.269361410637146
        ],
        [
          7.195629179477692,
          51.2694050425325
        ],
        [
          7.195725739002228,
          51.26944867438641
        ],
        [
          7.195811569690704,
          51.26948223732276
        ],
        [
          7.195886671543121,
          51.26950573136364
        ],
        [
          7.195967137813568,
          51.26952869544695
        ],
        [
          7.195967137813568,
          51.269527547247975
        ],
        [
          7.196042239665985,
          51.26954936312194
        ],
        [
          7.196264863014221,
          51.26961648882306
        ],
        [
          7.196366786956787,
          51.2696399827953
        ],
        [
          7.19641238451004,
          51.26964837349672
        ],
        [
          7.1964579820632935,
          51.269655086056815
        ],
        [
          7.196498215198517,
          51.269658442336464
        ],
        [
          7.1965491771698,
          51.269661798615886
        ],
        [
          7.196600139141083,
          51.26966347675551
        ],
        [
          7.1967315673828125,
          51.269658442336464
        ],
        [
          7.196940779685974,
          51.269636626514284
        ],
        [
          7.19703733921051,
          51.26962823581067
        ],
        [
          7.197064161300659,
          51.269624879528806
        ],
        [
          7.197203636169434,
          51.26960138554887
        ],
        [
          7.197249233722687,
          51.26959131669665
        ],
        [
          7.197589874267578,
          51.269522512814035
        ],
        [
          7.197863459587097,
          51.26946713400443
        ],
        [
          7.197994887828827,
          51.26944363994383
        ],
        [
          7.198142409324646,
          51.269421824019645
        ],
        [
          7.198426723480225,
          51.26938826103918
        ],
        [
          7.198437452316284,
          51.269386582889496
        ],
        [
          7.198515236377716,
          51.269378192140266
        ],
        [
          7.198708355426788,
          51.26935134173232
        ],
        [
          7.1987780928611755,
          51.269344629127914
        ],
        [
          7.1988531947135925,
          51.26933959467394
        ],
        [
          7.199070453643799,
          51.26933456021942
        ],
        [
          7.199196517467499,
          51.26933791652249
        ],
        [
          7.199349403381348,
          51.269342950976636
        ],
        [
          7.199486196041107,
          51.26935134173232
        ],
        [
          7.199606895446777,
          51.269361410637146
        ],
        [
          7.199754416942596,
          51.269378192140266
        ],
        [
          7.199888527393341,
          51.26939665178659
        ],
        [
          7.199998497962952,
          51.26941343327684
        ],
        [
          7.200113832950592,
          51.26943357105702
        ],
        [
          7.200207710266113,
          51.269453708828394
        ],
        [
          7.20029890537262,
          51.26947552473746
        ],
        [
          7.200384736061096,
          51.269499018781744
        ],
        [
          7.200470566749573,
          51.269525869103376
        ],
        [
          7.200639545917511,
          51.26958796041205
        ],
        [
          7.201074063777924,
          51.26978933705212
        ],
        [
          7.201554179191589,
          51.27002091909722
        ],
        [
          7.201766073703766,
          51.2701216065789
        ],
        [
          7.201881408691406,
          51.270171950237
        ],
        [
          7.201983332633972,
          51.27021725948214
        ],
        [
          7.202,
          51.27022374169268
        ],
        [
          7.202,
          51.27048399226516
        ],
        [
          7.201991379261017,
          51.27048072346679
        ],
        [
          7.201312780380249,
          51.270207190764836
        ],
        [
          7.200730741024017,
          51.269926943915266
        ],
        [
          7.2005027532577515,
          51.269809474667596
        ],
        [
          7.20029890537262,
          51.26970878650201
        ],
        [
          7.200272083282471,
          51.2696953613966
        ],
        [
          7.200239896774292,
          51.26968361442613
        ],
        [
          7.200170159339905,
          51.26966347675551
        ],
        [
          7.200113832950592,
          51.26965172977691
        ],
        [
          7.2000280022621155,
          51.269634948373664
        ],
        [
          7.199998497962952,
          51.26962991395152
        ],
        [
          7.199875116348267,
          51.26960809811578
        ],
        [
          7.199738323688507,
          51.2695862822697
        ],
        [
          7.199539840221405,
          51.26955775383993
        ],
        [
          7.199368178844452,
          51.269539294258294
        ],
        [
          7.19928503036499,
          51.26953258168135
        ],
        [
          7.199207246303558,
          51.26952922539249
        ],
        [
          7.199132144451141,
          51.269527547247975
        ],
        [
          7.199059724807739,
          51.269527547247975
        ],
        [
          7.19891220331192,
          51.26953090353692
        ],
        [
          7.198772728443146,
          51.26954097240241
        ],
        [
          7.198646664619446,
          51.26955271940935
        ],
        [
          7.1985045075416565,
          51.26956950084258
        ],
        [
          7.198488414287567,
          51.26957117898556
        ],
        [
          7.198220193386078,
          51.26961648882306
        ],
        [
          7.1979546546936035,
          51.26966515489505
        ],
        [
          7.19791442155838,
          51.26967186745267
        ],
        [
          7.197600603103638,
          51.26972892415276
        ],
        [
          7.197367250919342,
          51.269769199427856
        ],
        [
          7.197136580944061,
          51.269809474667596
        ],
        [
          7.196967601776123,
          51.26984303734042
        ],
        [
          7.196846902370453,
          51.26985478427014
        ],
        [
          7.196726202964783,
          51.269856462402714
        ],
        [
          7.196629643440247,
          51.26985478427014
        ],
        [
          7.19653844833374,
          51.26985142800481
        ],
        [
          7.196503579616547,
          51.269849749872066
        ],
        [
          7.196471393108368,
          51.26984639360634
        ],
        [
          7.196433842182159,
          51.26984303734042
        ],
        [
          7.1963560581207275,
          51.26983632480781
        ],
        [
          7.1962809562683105,
          51.26982793414069
        ],
        [
          7.1962085366249084,
          51.26981618720413
        ],
        [
          7.196138799190521,
          51.26980444026455
        ],
        [
          7.196071743965149,
          51.26979101518711
        ],
        [
          7.1960073709487915,
          51.26977591197027
        ],
        [
          7.195948362350464,
          51.269757452476256
        ],
        [
          7.195889353752136,
          51.26973899297485
        ],
        [
          7.195811569690704,
          51.269712142777735
        ],
        [
          7.195680141448975,
          51.2696601204762
        ],
        [
          7.195350229740143,
          51.26953593796995
        ],
        [
          7.195221483707428,
          51.26948559361506
        ],
        [
          7.195130288600922,
          51.269445318091414
        ],
        [
          7.195031046867371,
          51.26940000808514
        ],
        [
          7.1947842836380005,
          51.269274146722154
        ],
        [
          7.194687724113464,
          51.26919023895536
        ],
        [
          7.194615304470062,
          51.26913150342739
        ],
        [
          7.194569706916809,
          51.26909794023487
        ],
        [
          7.194524109363556,
          51.269071089663214
        ],
        [
          7.194481194019318,
          51.26904759540014
        ],
        [
          7.194438278675079,
          51.26902745745076
        ],
        [
          7.19398766805426,
          51.26883950283133
        ],
        [
          7.193987667560577,
          51.26883950283133
        ],
        [
          7.193987495086017,
          51.26883943068438
        ],
        [
          7.1938,
          51.268761224432886
        ],
        [
          7.1938,
          51.26850463127685
        ]
      ]
    ]
  }
}
