{
"type": "FeatureCollection",
"name": "footprints_sample_all",
"crs": { "type": "name", "properties": { "name": "urn:ogc:def:crs:OGC:1.3:CRS84" } },
"features": [
{ "type": "Feature", "properties": { "LINE": "033", "WAYPOINT": "124", "CAM": "171", "LFDNR": "003381", "FILENAME": "033_124_171003381", "ORI": "NORD", "TYPE": "OBL" }, "geometry": { "type": "MultiPolygon", "coordinates": [ [ [ [ 7.20744969, 51.26399456 ], [ 7.20433873, 51.26253497 ], [ 7.19660035, 51.26761397 ], [ 7.2023216, 51.27014809 ], [ 7.20744969, 51.26399456 ] ] ] ] } },
{ "type": "Feature", "properties": { "LINE": "033", "WAYPOINT": "125", "CAM": "171", "LFDNR": "003380", "FILENAME": "033_125_171003380", "ORI": "NORD", "TYPE": "OBL" }, "geometry": { "type": "MultiPolygon", "coordinates": [ [ [ [ 7.20835011, 51.26443102 ], [ 7.20525411, 51.2629537 ], [ 7.19747102, 51.26807703 ], [ 7.20322103, 51.27061155 ], [ 7.20835011, 51.26443102 ] ] ] ] } },
{ "type": "Feature", "properties": { "LINE": "033", "WAYPOINT": "126", "CAM": "171", "LFDNR": "003379", "FILENAME": "033_126_171003379", "ORI": "NORD", "TYPE": "OBL" }, "geometry": { "type": "MultiPolygon", "coordinates": [ [ [ [ 7.20930819, 51.26485937 ], [ 7.20621248, 51.26337307 ], [ 7.19844411, 51.26848771 ], [ 7.20418024, 51.27101298 ], [ 7.20930819, 51.26485937 ] ] ] ] } },
{ "type": "Feature", "properties": { "LINE": "033", "WAYPOINT": "127", "CAM": "171", "LFDNR": "003378", "FILENAME": "033_127_171003378", "ORI": "NORD", "TYPE": "OBL" }, "geometry": { "type": "MultiPolygon", "coordinates": [ [ [ [ 7.21022331, 51.26528704 ], [ 7.20704055, 51.26382642 ], [ 7.19937388, 51.2689067 ], [ 7.20509439, 51.27146766 ], [ 7.21022331, 51.26528704 ] ] ] ] } },
{ "type": "Feature", "properties": { "LINE": "033", "WAYPOINT": "128", "CAM": "171", "LFDNR": "003377", "FILENAME": "033_128_171003377", "ORI": "NORD", "TYPE": "OBL" }, "geometry": { "type": "MultiPolygon", "coordinates": [ [ [ [ 7.21116676, 51.26572414 ], [ 7.20798428, 51.26425456 ], [ 7.20030332, 51.26933468 ], [ 7.20605293, 51.27188704 ], [ 7.21116676, 51.26572414 ] ] ] ] } },
{ "type": "Feature", "properties": { "LINE": "033", "WAYPOINT": "129", "CAM": "171", "LFDNR": "003376", "FILENAME": "033_129_171003376", "ORI": "NORD", "TYPE": "OBL" }, "geometry": { "type": "MultiPolygon", "coordinates": [ [ [ [ 7.21208226, 51.26614282 ], [ 7.20891545, 51.26463752 ], [ 7.20126353, 51.26970916 ], [ 7.20698494, 51.27225205 ], [ 7.21208226, 51.26614282 ] ] ] ] } },
{ "type": "Feature", "properties": { "LINE": "033", "WAYPOINT": "130", "CAM": "171", "LFDNR": "003375", "FILENAME": "033_130_171003375", "ORI": "NORD", "TYPE": "OBL" }, "geometry": { "type": "MultiPolygon", "coordinates": [ [ [ [ 7.2130544, 51.26658033 ], [ 7.20985922, 51.26506564 ], [ 7.20228037, 51.27010249 ], [ 7.20798791, 51.27263612 ], [ 7.2130544, 51.26658033 ] ] ] ] } },
{ "type": "Feature", "properties": { "LINE": "033", "WAYPOINT": "131", "CAM": "171", "LFDNR": "003374", "FILENAME": "033_131_171003374", "ORI": "NORD", "TYPE": "OBL" }, "geometry": { "type": "MultiPolygon", "coordinates": [ [ [ [ 7.21395526, 51.26700776 ], [ 7.21074605, 51.26548389 ], [ 7.20316757, 51.27051181 ], [ 7.20889024, 51.27302764 ], [ 7.21395526, 51.26700776 ] ] ] ] } },
{ "type": "Feature", "properties": { "LINE": "034", "WAYPOINT": "124", "CAM": "176", "LFDNR": "003629", "FILENAME": "034_124_176003629", "ORI": "NORD", "TYPE": "OBL" }, "geometry": { "type": "MultiPolygon", "coordinates": [ [ [ [ 7.19044701, 51.26806757 ], [ 7.19622633, 51.27057591 ], [ 7.20127698, 51.26459233 ], [ 7.19804147, 51.26302273 ], [ 7.19044701, 51.26806757 ] ] ] ] } },
{ "type": "Feature", "properties": { "LINE": "034", "WAYPOINT": "125", "CAM": "176", "LFDNR": "003630", "FILENAME": "034_125_176003630", "ORI": "NORD", "TYPE": "OBL" }, "geometry": { "type": "MultiPolygon", "coordinates": [ [ [ [ 7.19136237, 51.26848641 ], [ 7.19715682, 51.27097695 ], [ 7.20222208, 51.26498455 ], [ 7.19894212, 51.26345027 ], [ 7.19136237, 51.26848641 ] ] ] ] } },
{ "type": "Feature", "properties": { "LINE": "034", "WAYPOINT": "126", "CAM": "176", "LFDNR": "003631", "FILENAME": "034_126_176003631", "ORI": "NORD", "TYPE": "OBL" }, "geometry": { "type": "MultiPolygon", "coordinates": [ [ [ [ 7.19227739, 51.26891423 ], [ 7.19805692, 51.27142248 ], [ 7.20313784, 51.26539431 ], [ 7.19981344, 51.26389535 ], [ 7.19227739, 51.26891423 ] ] ] ] } },
{ "type": "Feature", "properties": { "LINE": "034", "WAYPOINT": "127", "CAM": "176", "LFDNR": "003632", "FILENAME": "034_127_176003632", "ORI": "NORD", "TYPE": "OBL" }, "geometry": { "type": "MultiPolygon", "coordinates": [ [ [ [ 7.19319279, 51.26933305 ], [ 7.19898745, 51.2718235 ], [ 7.20405256, 51.26583102 ], [ 7.20068443, 51.2643494 ], [ 7.19319279, 51.26933305 ] ] ] ] } },
{ "type": "Feature", "properties": { "LINE": "034", "WAYPOINT": "128", "CAM": "176", "LFDNR": "003633", "FILENAME": "034_128_176003633", "ORI": "NORD", "TYPE": "OBL" }, "geometry": { "type": "MultiPolygon", "coordinates": [ [ [ [ 7.19416586, 51.26974376 ], [ 7.19997636, 51.27219843 ], [ 7.20498163, 51.26626795 ], [ 7.20159981, 51.26476815 ], [ 7.19416586, 51.26974376 ] ] ] ] } },
{ "type": "Feature", "properties": { "LINE": "034", "WAYPOINT": "129", "CAM": "176", "LFDNR": "003634", "FILENAME": "034_129_176003634", "ORI": "NORD", "TYPE": "OBL" }, "geometry": { "type": "MultiPolygon", "coordinates": [ [ [ [ 7.19510994, 51.27016301 ], [ 7.20089119, 51.27263517 ], [ 7.20591037, 51.26671386 ], [ 7.20258754, 51.26517003 ], [ 7.19510994, 51.27016301 ] ] ] ] } },
{ "type": "Feature", "properties": { "LINE": "034", "WAYPOINT": "130", "CAM": "176", "LFDNR": "003635", "FILENAME": "034_130_176003635", "ORI": "NORD", "TYPE": "OBL" }, "geometry": { "type": "MultiPolygon", "coordinates": [ [ [ [ 7.19609773, 51.27056494 ], [ 7.20184972, 51.27305459 ], [ 7.2068545, 51.26713301 ], [ 7.20353196, 51.26558022 ], [ 7.19609773, 51.27056494 ] ] ] ] } },
{ "type": "Feature", "properties": { "LINE": "034", "WAYPOINT": "131", "CAM": "176", "LFDNR": "003636", "FILENAME": "034_131_176003636", "ORI": "NORD", "TYPE": "OBL" }, "geometry": { "type": "MultiPolygon", "coordinates": [ [ [ [ 7.19699886, 51.27098351 ], [ 7.20276493, 51.27348232 ], [ 7.20776895, 51.26757868 ], [ 7.20443237, 51.26601671 ], [ 7.19699886, 51.27098351 ] ] ] ] } },
{ "type": "Feature", "properties": { "LINE": "034", "WAYPOINT": "132", "CAM": "176", "LFDNR": "003637", "FILENAME": "034_132_176003637", "ORI": "NORD", "TYPE": "OBL" }, "geometry": { "type": "MultiPolygon", "coordinates": [ [ [ [ 7.19791434, 51.27140229 ], [ 7.20368051, 51.27390106 ], [ 7.20868341, 51.26802435 ], [ 7.20531881, 51.26644399 ], [ 7.19791434, 51.27140229 ] ] ] ] } },
{ "type": "Feature", "properties": { "LINE": "034", "WAYPOINT": "133", "CAM": "176", "LFDNR": "003638", "FILENAME": "034_133_176003638", "ORI": "NORD", "TYPE": "OBL" }, "geometry": { "type": "MultiPolygon", "coordinates": [ [ [ [ 7.19884346, 51.27183927 ], [ 7.20460939, 51.27434698 ], [ 7.20959754, 51.26847899 ], [ 7.20620458, 51.26688923 ], [ 7.19884346, 51.27183927 ] ] ] ] } },
{ "type": "Feature", "properties": { "LINE": "034", "WAYPOINT": "134", "CAM": "176", "LFDNR": "003639", "FILENAME": "034_134_176003639", "ORI": "NORD", "TYPE": "OBL" }, "geometry": { "type": "MultiPolygon", "coordinates": [ [ [ [ 7.19981875, 51.27219601 ], [ 7.20552675, 51.27472077 ], [ 7.21052811, 51.26887993 ], [ 7.20713509, 51.26729019 ], [ 7.19981875, 51.27219601 ] ] ] ] } },
{ "type": "Feature", "properties": { "LINE": "034", "WAYPOINT": "135", "CAM": "176", "LFDNR": "003640", "FILENAME": "034_135_176003640", "ORI": "NORD", "TYPE": "OBL" }, "geometry": { "type": "MultiPolygon", "coordinates": [ [ [ [ 7.20085066, 51.2725716 ], [ 7.20651508, 51.27511363 ], [ 7.21150133, 51.26929049 ], [ 7.20807959, 51.26770035 ], [ 7.20085066, 51.2725716 ] ] ] ] } },
{ "type": "Feature", "properties": { "LINE": "034", "WAYPOINT": "136", "CAM": "176", "LFDNR": "003641", "FILENAME": "034_136_176003641", "ORI": "NORD", "TYPE": "OBL" }, "geometry": { "type": "MultiPolygon", "coordinates": [ [ [ [ 7.20175047, 51.27302608 ], [ 7.20745869, 51.27555075 ], [ 7.21243054, 51.26972736 ], [ 7.20897973, 51.26814579 ], [ 7.20175047, 51.27302608 ] ] ] ] } },
{ "type": "Feature", "properties": { "LINE": "034", "WAYPOINT": "137", "CAM": "176", "LFDNR": "003642", "FILENAME": "034_137_176003642", "ORI": "NORD", "TYPE": "OBL" }, "geometry": { "type": "MultiPolygon", "coordinates": [ [ [ [ 7.20265136, 51.2734536 ], [ 7.2083443, 51.27600497 ], [ 7.21333112, 51.27016379 ], [ 7.20986591, 51.26858202 ], [ 7.20265136, 51.2734536 ] ] ] ] } },
{ "type": "Feature", "properties": { "LINE": "035", "WAYPOINT": "150", "CAM": "171", "LFDNR": "003781", "FILENAME": "035_150_171003781", "ORI": "NORD", "TYPE": "OBL" }, "geometry": { "type": "MultiPolygon", "coordinates": [ [ [ [ 7.19963313, 51.26740885 ], [ 7.19611166, 51.26581682 ], [ 7.18933583, 51.27044254 ], [ 7.19482811, 51.27296449 ], [ 7.19963313, 51.26740885 ] ] ] ] } },
{ "type": "Feature", "properties": { "LINE": "035", "WAYPOINT": "151", "CAM": "171", "LFDNR": "003780", "FILENAME": "035_151_171003780", "ORI": "NORD", "TYPE": "OBL" }, "geometry": { "type": "MultiPolygon", "coordinates": [ [ [ [ 7.20056289, 51.26782784 ], [ 7.19704065, 51.26625381 ], [ 7.19023513, 51.2709061 ], [ 7.19581736, 51.27333047 ], [ 7.20056289, 51.26782784 ] ] ] ] } },
{ "type": "Feature", "properties": { "LINE": "035", "WAYPOINT": "152", "CAM": "171", "LFDNR": "003779", "FILENAME": "035_152_171003779", "ORI": "NORD", "TYPE": "OBL" }, "geometry": { "type": "MultiPolygon", "coordinates": [ [ [ [ 7.20147834, 51.2682466 ], [ 7.19794171, 51.26667237 ], [ 7.19112189, 51.2713245 ], [ 7.19673393, 51.27372231 ], [ 7.20147834, 51.2682466 ] ] ] ] } },
{ "type": "Feature", "properties": { "LINE": "035", "WAYPOINT": "153", "CAM": "171", "LFDNR": "003778", "FILENAME": "035_153_171003778", "ORI": "NORD", "TYPE": "OBL" }, "geometry": { "type": "MultiPolygon", "coordinates": [ [ [ [ 7.20240708, 51.26869253 ], [ 7.19885676, 51.26710014 ], [ 7.19197754, 51.27180536 ], [ 7.19766273, 51.27416828 ], [ 7.20240708, 51.26869253 ] ] ] ] } },
{ "type": "Feature", "properties": { "LINE": "035", "WAYPOINT": "154", "CAM": "171", "LFDNR": "003777", "FILENAME": "035_154_171003777", "ORI": "NORD", "TYPE": "OBL" }, "geometry": { "type": "MultiPolygon", "coordinates": [ [ [ [ 7.20335087, 51.2691207 ], [ 7.19980083, 51.26751935 ], [ 7.19286327, 51.2722507 ], [ 7.19859191, 51.27460525 ], [ 7.20335087, 51.2691207 ] ] ] ] } },
{ "type": "Feature", "properties": { "LINE": "035", "WAYPOINT": "155", "CAM": "171", "LFDNR": "003776", "FILENAME": "035_155_171003776", "ORI": "NORD", "TYPE": "OBL" }, "geometry": { "type": "MultiPolygon", "coordinates": [ [ [ [ 7.20429572, 51.2695219 ], [ 7.20074598, 51.26791159 ], [ 7.19383781, 51.27262547 ], [ 7.19955186, 51.27498874 ], [ 7.20429572, 51.2695219 ] ] ] ] } },
{ "type": "Feature", "properties": { "LINE": "035", "WAYPOINT": "156", "CAM": "171", "LFDNR": "003775", "FILENAME": "035_156_171003775", "ORI": "NORD", "TYPE": "OBL" }, "geometry": { "type": "MultiPolygon", "coordinates": [ [ [ [ 7.20522487, 51.26995883 ], [ 7.20166108, 51.26833934 ], [ 7.19484067, 51.27300965 ], [ 7.20045136, 51.27545222 ], [ 7.20522487, 51.26995883 ] ] ] ] } },
{ "type": "Feature", "properties": { "LINE": "035", "WAYPOINT": "157", "CAM": "171", "LFDNR": "003774", "FILENAME": "035_157_171003774", "ORI": "NORD", "TYPE": "OBL" }, "geometry": { "type": "MultiPolygon", "coordinates": [ [ [ [ 7.20612467, 51.27041328 ], [ 7.20254719, 51.26877562 ], [ 7.1957705, 51.27342867 ], [ 7.20132116, 51.27594222 ], [ 7.20612467, 51.27041328 ] ] ] ] } },
{ "type": "Feature", "properties": { "LINE": "035", "WAYPOINT": "158", "CAM": "171", "LFDNR": "003773", "FILENAME": "035_158_171003773", "ORI": "NORD", "TYPE": "OBL" }, "geometry": { "type": "MultiPolygon", "coordinates": [ [ [ [ 7.20708321, 51.27083265 ], [ 7.20347665, 51.26920357 ], [ 7.196729, 51.27384813 ], [ 7.20226438, 51.27638838 ], [ 7.20708321, 51.27083265 ] ] ] ] } },
{ "type": "Feature", "properties": { "LINE": "035", "WAYPOINT": "159", "CAM": "171", "LFDNR": "003772", "FILENAME": "035_159_171003772", "ORI": "NORD", "TYPE": "OBL" }, "geometry": { "type": "MultiPolygon", "coordinates": [ [ [ [ 7.20805784, 51.2712073 ], [ 7.20445087, 51.26958723 ], [ 7.19768893, 51.27423163 ], [ 7.20326985, 51.27670958 ], [ 7.20805784, 51.2712073 ] ] ] ] } },
{ "type": "Feature", "properties": { "LINE": "035", "WAYPOINT": "160", "CAM": "171", "LFDNR": "003771", "FILENAME": "035_160_171003771", "ORI": "NORD", "TYPE": "OBL" }, "geometry": { "type": "MultiPolygon", "coordinates": [ [ [ [ 7.20898775, 51.27162622 ], [ 7.20538072, 51.27000618 ], [ 7.19863349, 51.27464187 ], [ 7.20423024, 51.27708404 ], [ 7.20898775, 51.27162622 ] ] ] ] } },
{ "type": "Feature", "properties": { "LINE": "035", "WAYPOINT": "161", "CAM": "171", "LFDNR": "003770", "FILENAME": "035_161_171003770", "ORI": "NORD", "TYPE": "OBL" }, "geometry": { "type": "MultiPolygon", "coordinates": [ [ [ [ 7.20994739, 51.27201861 ], [ 7.20631128, 51.27040715 ], [ 7.19959309, 51.27503434 ], [ 7.20525042, 51.27739646 ], [ 7.20994739, 51.27201861 ] ] ] ] } },
{ "type": "Feature", "properties": { "LINE": "035", "WAYPOINT": "162", "CAM": "171", "LFDNR": "003769", "FILENAME": "035_162_171003769", "ORI": "NORD", "TYPE": "OBL" }, "geometry": { "type": "MultiPolygon", "coordinates": [ [ [ [ 7.21086196, 51.27246426 ], [ 7.20722614, 51.27084384 ], [ 7.20046358, 51.27550637 ], [ 7.20613499, 51.27787765 ], [ 7.21086196, 51.27246426 ] ] ] ] } },
{ "type": "Feature", "properties": { "LINE": "036", "WAYPOINT": "156", "CAM": "176", "LFDNR": "004087", "FILENAME": "036_156_176004087", "ORI": "NORD", "TYPE": "OBL" }, "geometry": { "type": "MultiPolygon", "coordinates": [ [ [ [ 7.18723782, 51.27238854 ], [ 7.19245267, 51.2750412 ], [ 7.19719562, 51.2696196 ], [ 7.19351717, 51.26800708 ], [ 7.18723782, 51.27238854 ] ] ] ] } },
{ "type": "Feature", "properties": { "LINE": "036", "WAYPOINT": "157", "CAM": "176", "LFDNR": "004088", "FILENAME": "036_157_176004088", "ORI": "NORD", "TYPE": "OBL" }, "geometry": { "type": "MultiPolygon", "coordinates": [ [ [ [ 7.18816863, 51.27278066 ], [ 7.19343009, 51.27534407 ], [ 7.1981261, 51.27002063 ], [ 7.19444759, 51.26840814 ], [ 7.18816863, 51.27278066 ] ] ] ] } },
{ "type": "Feature", "properties": { "LINE": "036", "WAYPOINT": "158", "CAM": "176", "LFDNR": "004089", "FILENAME": "036_158_176004089", "ORI": "NORD", "TYPE": "OBL" }, "geometry": { "type": "MultiPolygon", "coordinates": [ [ [ [ 7.1889659, 51.27328761 ], [ 7.1944047, 51.27571883 ], [ 7.19904087, 51.27045738 ], [ 7.19536229, 51.26884492 ], [ 7.1889659, 51.27328761 ] ] ] ] } },
{ "type": "Feature", "properties": { "LINE": "036", "WAYPOINT": "159", "CAM": "176", "LFDNR": "004090", "FILENAME": "036_159_176004090", "ORI": "NORD", "TYPE": "OBL" }, "geometry": { "type": "MultiPolygon", "coordinates": [ [ [ [ 7.18979255, 51.27377703 ], [ 7.19539436, 51.27607582 ], [ 7.19997068, 51.27087637 ], [ 7.19630637, 51.26926416 ], [ 7.18979255, 51.27377703 ] ] ] ] } },
{ "type": "Feature", "properties": { "LINE": "036", "WAYPOINT": "160", "CAM": "176", "LFDNR": "004091", "FILENAME": "036_160_176004091", "ORI": "NORD", "TYPE": "OBL" }, "geometry": { "type": "MultiPolygon", "coordinates": [ [ [ [ 7.19063426, 51.27424869 ], [ 7.19632425, 51.27649484 ], [ 7.20091519, 51.27128658 ], [ 7.19725081, 51.26967441 ], [ 7.19063426, 51.27424869 ] ] ] ] } },
{ "type": "Feature", "properties": { "LINE": "036", "WAYPOINT": "161", "CAM": "176", "LFDNR": "004092", "FILENAME": "036_161_176004092", "ORI": "NORD", "TYPE": "OBL" }, "geometry": { "type": "MultiPolygon", "coordinates": [ [ [ [ 7.19153541, 51.27466731 ], [ 7.19725416, 51.27691385 ], [ 7.20186042, 51.27167882 ], [ 7.19820996, 51.27007588 ], [ 7.19153541, 51.27466731 ] ] ] ] } },
{ "type": "Feature", "properties": { "LINE": "036", "WAYPOINT": "162", "CAM": "176", "LFDNR": "004093", "FILENAME": "036_162_176004093", "ORI": "NORD", "TYPE": "OBL" }, "geometry": { "type": "MultiPolygon", "coordinates": [ [ [ [ 7.19255262, 51.27505173 ], [ 7.19819807, 51.27734207 ], [ 7.20281965, 51.27208025 ], [ 7.19916911, 51.27047734 ], [ 7.19255262, 51.27505173 ] ] ] ] } },
{ "type": "Feature", "properties": { "LINE": "036", "WAYPOINT": "163", "CAM": "176", "LFDNR": "004094", "FILENAME": "036_163_176004094", "ORI": "NORD", "TYPE": "OBL" }, "geometry": { "type": "MultiPolygon", "coordinates": [ [ [ [ 7.19364432, 51.27536536 ], [ 7.19914305, 51.27774331 ], [ 7.20376421, 51.27249044 ], [ 7.20012829, 51.27087879 ], [ 7.19364432, 51.27536536 ] ] ] ] } },
{ "type": "Feature", "properties": { "LINE": "036", "WAYPOINT": "164", "CAM": "176", "LFDNR": "004095", "FILENAME": "036_164_176004095", "ORI": "NORD", "TYPE": "OBL" }, "geometry": { "type": "MultiPolygon", "coordinates": [ [ [ [ 7.19475036, 51.27567919 ], [ 7.20010307, 51.27812679 ], [ 7.20470914, 51.27289164 ], [ 7.20110181, 51.27128046 ], [ 7.19475036, 51.27567919 ] ] ] ] } },
{ "type": "Feature", "properties": { "LINE": "036", "WAYPOINT": "165", "CAM": "176", "LFDNR": "004096", "FILENAME": "036_165_176004096", "ORI": "NORD", "TYPE": "OBL" }, "geometry": { "type": "MultiPolygon", "coordinates": [ [ [ [ 7.19569492, 51.27608945 ], [ 7.20101837, 51.27855454 ], [ 7.20563835, 51.27332856 ], [ 7.20201733, 51.27169921 ], [ 7.19569492, 51.27608945 ] ] ] ] } },
{ "type": "Feature", "properties": { "LINE": "036", "WAYPOINT": "166", "CAM": "176", "LFDNR": "004097", "FILENAME": "036_166_176004097", "ORI": "NORD", "TYPE": "OBL" }, "geometry": { "type": "MultiPolygon", "coordinates": [ [ [ [ 7.19658078, 51.27653477 ], [ 7.20190292, 51.27903577 ], [ 7.20655361, 51.27375627 ], [ 7.20291819, 51.27212673 ], [ 7.19658078, 51.27653477 ] ] ] ] } },
{ "type": "Feature", "properties": { "LINE": "036", "WAYPOINT": "167", "CAM": "176", "LFDNR": "004098", "FILENAME": "036_167_176004098", "ORI": "NORD", "TYPE": "OBL" }, "geometry": { "type": "MultiPolygon", "coordinates": [ [ [ [ 7.19745196, 51.27698885 ], [ 7.20283188, 51.2794817 ], [ 7.20749824, 51.27416643 ], [ 7.2038624, 51.27254591 ], [ 7.19745196, 51.27698885 ] ] ] ] } },
{ "type": "Feature", "properties": { "LINE": "036", "WAYPOINT": "168", "CAM": "176", "LFDNR": "004099", "FILENAME": "036_168_176004099", "ORI": "NORD", "TYPE": "OBL" }, "geometry": { "type": "MultiPolygon", "coordinates": [ [ [ [ 7.19839622, 51.27740807 ], [ 7.20380595, 51.27987436 ], [ 7.20845791, 51.27455883 ], [ 7.20482166, 51.27294732 ], [ 7.19839622, 51.27740807 ] ] ] ] } },
{ "type": "Feature", "properties": { "LINE": "037", "WAYPOINT": "157", "CAM": "171", "LFDNR": "004247", "FILENAME": "037_157_171004247", "ORI": "NORD", "TYPE": "OBL" }, "geometry": { "type": "MultiPolygon", "coordinates": [ [ [ [ 7.19668008, 51.27253439 ], [ 7.193043, 51.27095848 ], [ 7.1867632, 51.2753399 ], [ 7.19198047, 51.27793866 ], [ 7.19668008, 51.27253439 ] ] ] ] } },
{ "type": "Feature", "properties": { "LINE": "037", "WAYPOINT": "158", "CAM": "171", "LFDNR": "004246", "FILENAME": "037_158_171004246", "ORI": "NORD", "TYPE": "OBL" }, "geometry": { "type": "MultiPolygon", "coordinates": [ [ [ [ 7.1976246, 51.27294464 ], [ 7.19398745, 51.27136875 ], [ 7.18767867, 51.27575877 ], [ 7.19300164, 51.27822422 ], [ 7.1976246, 51.27294464 ] ] ] ] } },
{ "type": "Feature", "properties": { "LINE": "037", "WAYPOINT": "159", "CAM": "171", "LFDNR": "004245", "FILENAME": "037_159_171004245", "ORI": "NORD", "TYPE": "OBL" }, "geometry": { "type": "MultiPolygon", "coordinates": [ [ [ [ 7.19852509, 51.27338117 ], [ 7.19490291, 51.27178756 ], [ 7.18841867, 51.27626484 ], [ 7.19391863, 51.27860708 ], [ 7.19852509, 51.27338117 ] ] ] ] } },
{ "type": "Feature", "properties": { "LINE": "037", "WAYPOINT": "160", "CAM": "171", "LFDNR": "004244", "FILENAME": "037_160_171004244", "ORI": "NORD", "TYPE": "OBL" }, "geometry": { "type": "MultiPolygon", "coordinates": [ [ [ [ 7.19946999, 51.27378241 ], [ 7.19584704, 51.2722068 ], [ 7.18923033, 51.27677202 ], [ 7.19489296, 51.27899083 ], [ 7.19946999, 51.27378241 ] ] ] ] } },
{ "type": "Feature", "properties": { "LINE": "037", "WAYPOINT": "161", "CAM": "171", "LFDNR": "004243", "FILENAME": "037_161_171004243", "ORI": "NORD", "TYPE": "OBL" }, "geometry": { "type": "MultiPolygon", "coordinates": [ [ [ [ 7.20042994, 51.27416589 ], [ 7.19683523, 51.27259974 ], [ 7.19018955, 51.27717355 ], [ 7.19591312, 51.27930333 ], [ 7.20042994, 51.27416589 ] ] ] ] } },
{ "type": "Feature", "properties": { "LINE": "037", "WAYPOINT": "162", "CAM": "171", "LFDNR": "004242", "FILENAME": "037_162_171004242", "ORI": "NORD", "TYPE": "OBL" }, "geometry": { "type": "MultiPolygon", "coordinates": [ [ [ [ 7.20137417, 51.27458509 ], [ 7.19776507, 51.27301874 ], [ 7.19116346, 51.27756631 ], [ 7.1968728, 51.27969582 ], [ 7.20137417, 51.27458509 ] ] ] ] } },
{ "type": "Feature", "properties": { "LINE": "037", "WAYPOINT": "163", "CAM": "171", "LFDNR": "004241", "FILENAME": "037_163_171004241", "ORI": "NORD", "TYPE": "OBL" }, "geometry": { "type": "MultiPolygon", "coordinates": [ [ [ [ 7.20230409, 51.27500406 ], [ 7.19868095, 51.27342854 ], [ 7.19212342, 51.27794986 ], [ 7.19778845, 51.28011461 ], [ 7.20230409, 51.27500406 ] ] ] ] } },
{ "type": "Feature", "properties": { "LINE": "037", "WAYPOINT": "164", "CAM": "171", "LFDNR": "004240", "FILENAME": "037_164_171004240", "ORI": "NORD", "TYPE": "OBL" }, "geometry": { "type": "MultiPolygon", "coordinates": [ [ [ [ 7.20322005, 51.27541382 ], [ 7.19963983, 51.27383898 ], [ 7.19309772, 51.27833362 ], [ 7.19865795, 51.28061362 ], [ 7.20322005, 51.27541382 ] ] ] ] } },
{ "type": "Feature", "properties": { "LINE": "037", "WAYPOINT": "165", "CAM": "171", "LFDNR": "004239", "FILENAME": "037_165_171004239", "ORI": "NORD", "TYPE": "OBL" }, "geometry": { "type": "MultiPolygon", "coordinates": [ [ [ [ 7.20415035, 51.27582379 ], [ 7.20056936, 51.27426696 ], [ 7.19407098, 51.27874433 ], [ 7.19952713, 51.28112161 ], [ 7.20415035, 51.27582379 ] ] ] ] } },
{ "type": "Feature", "properties": { "LINE": "036", "WAYPOINT": "148", "CAM": "170", "LFDNR": "004079", "FILENAME": "036_148_170004079", "ORI": "OST", "TYPE": "OBL" }, "geometry": { "type": "MultiPolygon", "coordinates": [ [ [ [ 7.19502265, 51.26653746 ], [ 7.20053663, 51.26996778 ], [ 7.20420708, 51.2651769 ], [ 7.19797468, 51.26326451 ], [ 7.19502265, 51.26653746 ] ] ] ] } },
{ "type": "Feature", "properties": { "LINE": "036", "WAYPOINT": "149", "CAM": "170", "LFDNR": "004080", "FILENAME": "036_149_170004080", "ORI": "OST", "TYPE": "OBL" }, "geometry": { "type": "MultiPolygon", "coordinates": [ [ [ [ 7.19595234, 51.26695648 ], [ 7.20145247, 51.27037755 ], [ 7.2053077, 51.26562545 ], [ 7.19893299, 51.26368395 ], [ 7.19595234, 51.26695648 ] ] ] ] } },
{ "type": "Feature", "properties": { "LINE": "036", "WAYPOINT": "150", "CAM": "170", "LFDNR": "004081", "FILENAME": "036_150_170004081", "ORI": "OST", "TYPE": "OBL" }, "geometry": { "type": "MultiPolygon", "coordinates": [ [ [ [ 7.19686773, 51.26737528 ], [ 7.20236833, 51.27078731 ], [ 7.20636536, 51.26607333 ], [ 7.19991962, 51.26411281 ], [ 7.19686773, 51.26737528 ] ] ] ] } },
{ "type": "Feature", "properties": { "LINE": "036", "WAYPOINT": "151", "CAM": "170", "LFDNR": "004082", "FILENAME": "036_151_170004082", "ORI": "OST", "TYPE": "OBL" }, "geometry": { "type": "MultiPolygon", "coordinates": [ [ [ [ 7.19781215, 51.26778552 ], [ 7.20327058, 51.27117888 ], [ 7.20730948, 51.26649248 ], [ 7.20093527, 51.26453312 ], [ 7.19781215, 51.26778552 ] ] ] ] } },
{ "type": "Feature", "properties": { "LINE": "036", "WAYPOINT": "152", "CAM": "170", "LFDNR": "004083", "FILENAME": "036_152_170004083", "ORI": "OST", "TYPE": "OBL" }, "geometry": { "type": "MultiPolygon", "coordinates": [ [ [ [ 7.1987433, 51.26816857 ], [ 7.20421582, 51.27157109 ], [ 7.20828263, 51.26690308 ], [ 7.20185136, 51.26493389 ], [ 7.1987433, 51.26816857 ] ] ] ] } },
{ "type": "Feature", "properties": { "LINE": "036", "WAYPOINT": "153", "CAM": "170", "LFDNR": "004084", "FILENAME": "036_153_170004084", "ORI": "OST", "TYPE": "OBL" }, "geometry": { "type": "MultiPolygon", "coordinates": [ [ [ [ 7.19964336, 51.26861408 ], [ 7.20511565, 51.27202555 ], [ 7.20923971, 51.26735838 ], [ 7.20272309, 51.26536996 ], [ 7.19964336, 51.26861408 ] ] ] ] } },
{ "type": "Feature", "properties": { "LINE": "036", "WAYPOINT": "154", "CAM": "170", "LFDNR": "004085", "FILENAME": "036_154_170004085", "ORI": "OST", "TYPE": "OBL" }, "geometry": { "type": "MultiPolygon", "coordinates": [ [ [ [ 7.20057314, 51.26903307 ], [ 7.20605918, 51.27246269 ], [ 7.21022617, 51.26779614 ], [ 7.20365283, 51.26578892 ], [ 7.20057314, 51.26903307 ] ] ] ] } },
{ "type": "Feature", "properties": { "LINE": "036", "WAYPOINT": "155", "CAM": "170", "LFDNR": "004086", "FILENAME": "036_155_170004086", "ORI": "OST", "TYPE": "OBL" }, "geometry": { "type": "MultiPolygon", "coordinates": [ [ [ [ 7.20153195, 51.2694435 ], [ 7.20703279, 51.27286431 ], [ 7.21122837, 51.26819817 ], [ 7.20465458, 51.26619998 ], [ 7.20153195, 51.2694435 ] ] ] ] } },
{ "type": "Feature", "properties": { "LINE": "036", "WAYPOINT": "156", "CAM": "170", "LFDNR": "004087", "FILENAME": "036_156_170004087", "ORI": "OST", "TYPE": "OBL" }, "geometry": { "type": "MultiPolygon", "coordinates": [ [ [ [ 7.2024768, 51.26984471 ], [ 7.20793617, 51.27322887 ], [ 7.21223024, 51.26860917 ], [ 7.20564202, 51.26661082 ], [ 7.2024768, 51.26984471 ] ] ] ] } },
{ "type": "Feature", "properties": { "LINE": "036", "WAYPOINT": "157", "CAM": "170", "LFDNR": "004088", "FILENAME": "036_157_170004088", "ORI": "OST", "TYPE": "OBL" }, "geometry": { "type": "MultiPolygon", "coordinates": [ [ [ [ 7.20340698, 51.27025469 ], [ 7.20883781, 51.27363836 ], [ 7.21321675, 51.2690469 ], [ 7.20657182, 51.26702976 ], [ 7.20340698, 51.27025469 ] ] ] ] } },
{ "type": "Feature", "properties": { "LINE": "037", "WAYPOINT": "145", "CAM": "174", "LFDNR": "004259", "FILENAME": "037_145_174004259", "ORI": "OST", "TYPE": "OBL" }, "geometry": { "type": "MultiPolygon", "coordinates": [ [ [ [ 7.2007525, 51.26664367 ], [ 7.19412386, 51.26459908 ], [ 7.19077032, 51.26786573 ], [ 7.19621425, 51.2712502 ], [ 7.2007525, 51.26664367 ] ] ] ] } },
{ "type": "Feature", "properties": { "LINE": "037", "WAYPOINT": "146", "CAM": "174", "LFDNR": "004258", "FILENAME": "037_146_174004258", "ORI": "OST", "TYPE": "OBL" }, "geometry": { "type": "MultiPolygon", "coordinates": [ [ [ [ 7.20162494, 51.26706177 ], [ 7.19503883, 51.26502688 ], [ 7.1916993, 51.26830276 ], [ 7.19714406, 51.27166922 ], [ 7.20162494, 51.26706177 ] ] ] ] } },
{ "type": "Feature", "properties": { "LINE": "037", "WAYPOINT": "147", "CAM": "174", "LFDNR": "004257", "FILENAME": "037_147_174004257", "ORI": "OST", "TYPE": "OBL" }, "geometry": { "type": "MultiPolygon", "coordinates": [ [ [ [ 7.2025991, 51.26744545 ], [ 7.19601253, 51.2654196 ], [ 7.19265942, 51.26867731 ], [ 7.19811792, 51.27206192 ], [ 7.2025991, 51.26744545 ] ] ] ] } },
{ "type": "Feature", "properties": { "LINE": "037", "WAYPOINT": "148", "CAM": "174", "LFDNR": "004256", "FILENAME": "037_148_174004256", "ORI": "OST", "TYPE": "OBL" }, "geometry": { "type": "MultiPolygon", "coordinates": [ [ [ [ 7.20360052, 51.26786551 ], [ 7.19695725, 51.26582086 ], [ 7.19360417, 51.2690786 ], [ 7.19900688, 51.27242633 ], [ 7.20360052, 51.26786551 ] ] ] ] } },
{ "type": "Feature", "properties": { "LINE": "037", "WAYPOINT": "149", "CAM": "174", "LFDNR": "004255", "FILENAME": "037_149_174004255", "ORI": "OST", "TYPE": "OBL" }, "geometry": { "type": "MultiPolygon", "coordinates": [ [ [ [ 7.20460196, 51.26828556 ], [ 7.19794461, 51.26623176 ], [ 7.19454894, 51.26947988 ], [ 7.19996574, 51.27283678 ], [ 7.20460196, 51.26828556 ] ] ] ] } },
{ "type": "Feature", "properties": { "LINE": "037", "WAYPOINT": "150", "CAM": "174", "LFDNR": "004254", "FILENAME": "037_150_174004254", "ORI": "OST", "TYPE": "OBL" }, "geometry": { "type": "MultiPolygon", "coordinates": [ [ [ [ 7.20553143, 51.2687135 ], [ 7.19888831, 51.26665997 ], [ 7.19546401, 51.26990767 ], [ 7.20088094, 51.27326453 ], [ 7.20553143, 51.2687135 ] ] ] ] } },
{ "type": "Feature", "properties": { "LINE": "037", "WAYPOINT": "151", "CAM": "174", "LFDNR": "004253", "FILENAME": "037_151_174004253", "ORI": "OST", "TYPE": "OBL" }, "geometry": { "type": "MultiPolygon", "coordinates": [ [ [ [ 7.20653256, 51.26914252 ], [ 7.19981804, 51.26707896 ], [ 7.19639449, 51.27030871 ], [ 7.2017979, 51.27364733 ], [ 7.20653256, 51.26914252 ] ] ] ] } },
{ "type": "Feature", "properties": { "LINE": "037", "WAYPOINT": "152", "CAM": "174", "LFDNR": "004252", "FILENAME": "037_152_174004252", "ORI": "OST", "TYPE": "OBL" }, "geometry": { "type": "MultiPolygon", "coordinates": [ [ [ [ 7.20751973, 51.26956233 ], [ 7.2007478, 51.26749794 ], [ 7.19731065, 51.27070953 ], [ 7.20271383, 51.27405709 ], [ 7.20751973, 51.26956233 ] ] ] ] } },
{ "type": "Feature", "properties": { "LINE": "037", "WAYPOINT": "153", "CAM": "174", "LFDNR": "004251", "FILENAME": "037_153_174004251", "ORI": "OST", "TYPE": "OBL" }, "geometry": { "type": "MultiPolygon", "coordinates": [ [ [ [ 7.2084199, 51.27000778 ], [ 7.20166254, 51.26793467 ], [ 7.19822507, 51.27115527 ], [ 7.20360041, 51.27448438 ], [ 7.2084199, 51.27000778 ] ] ] ] } },
{ "type": "Feature", "properties": { "LINE": "037", "WAYPOINT": "154", "CAM": "174", "LFDNR": "004250", "FILENAME": "037_154_174004250", "ORI": "OST", "TYPE": "OBL" }, "geometry": { "type": "MultiPolygon", "coordinates": [ [ [ [ 7.20933477, 51.27044445 ], [ 7.20259163, 51.26837162 ], [ 7.19912624, 51.27157383 ], [ 7.20448701, 51.27491167 ], [ 7.20933477, 51.27044445 ] ] ] ] } },
{ "type": "Feature", "properties": { "LINE": "037", "WAYPOINT": "155", "CAM": "174", "LFDNR": "004249", "FILENAME": "037_155_174004249", "ORI": "OST", "TYPE": "OBL" }, "geometry": { "type": "MultiPolygon", "coordinates": [ [ [ [ 7.21020667, 51.27088046 ], [ 7.20349173, 51.2688171 ], [ 7.20001239, 51.27201013 ], [ 7.20536, 51.27532075 ], [ 7.21020667, 51.27088046 ] ] ] ] } },
{ "type": "Feature", "properties": { "LINE": "037", "WAYPOINT": "156", "CAM": "174", "LFDNR": "004248", "FILENAME": "037_156_174004248", "ORI": "OST", "TYPE": "OBL" }, "geometry": { "type": "MultiPolygon", "coordinates": [ [ [ [ 7.21115127, 51.27129059 ], [ 7.20443623, 51.26922729 ], [ 7.20095692, 51.27242035 ], [ 7.20633261, 51.27574933 ], [ 7.21115127, 51.27129059 ] ] ] ] } },
{ "type": "Feature", "properties": { "LINE": "037", "WAYPOINT": "157", "CAM": "174", "LFDNR": "004247", "FILENAME": "037_157_174004247", "ORI": "OST", "TYPE": "OBL" }, "geometry": { "type": "MultiPolygon", "coordinates": [ [ [ [ 7.2121249, 51.27169217 ], [ 7.20540975, 51.26962892 ], [ 7.20191616, 51.27282179 ], [ 7.20730558, 51.27616893 ], [ 7.2121249, 51.27169217 ] ] ] ] } },
{ "type": "Feature", "properties": { "LINE": "037", "WAYPOINT": "158", "CAM": "174", "LFDNR": "004246", "FILENAME": "037_158_174004246", "ORI": "OST", "TYPE": "OBL" }, "geometry": { "type": "MultiPolygon", "coordinates": [ [ [ [ 7.21311252, 51.27210294 ], [ 7.20636862, 51.27003931 ], [ 7.20286107, 51.273223 ], [ 7.20823734, 51.27654291 ], [ 7.21311252, 51.27210294 ] ] ] ] } },
{ "type": "Feature", "properties": { "LINE": "038", "WAYPOINT": "150", "CAM": "170", "LFDNR": "004554", "FILENAME": "038_150_170004554", "ORI": "OST", "TYPE": "OBL" }, "geometry": { "type": "MultiPolygon", "coordinates": [ [ [ [ 7.18825842, 51.26976938 ], [ 7.19370168, 51.27317194 ], [ 7.19890425, 51.26881854 ], [ 7.1920626, 51.2667166 ], [ 7.18825842, 51.26976938 ] ] ] ] } },
{ "type": "Feature", "properties": { "LINE": "038", "WAYPOINT": "151", "CAM": "170", "LFDNR": "004555", "FILENAME": "038_151_170004555", "ORI": "OST", "TYPE": "OBL" }, "geometry": { "type": "MultiPolygon", "coordinates": [ [ [ [ 7.18924437, 51.2702163 ], [ 7.19454906, 51.27349977 ], [ 7.19987736, 51.26922921 ], [ 7.19300731, 51.26711789 ], [ 7.18924437, 51.2702163 ] ] ] ] } },
{ "type": "Feature", "properties": { "LINE": "038", "WAYPOINT": "152", "CAM": "170", "LFDNR": "004556", "FILENAME": "038_152_170004556", "ORI": "OST", "TYPE": "OBL" }, "geometry": { "type": "MultiPolygon", "coordinates": [ [ [ [ 7.19021707, 51.27063603 ], [ 7.1954251, 51.27382804 ], [ 7.20086482, 51.26964008 ], [ 7.19396636, 51.2675194 ], [ 7.19021707, 51.27063603 ] ] ] ] } },
{ "type": "Feature", "properties": { "LINE": "038", "WAYPOINT": "153", "CAM": "170", "LFDNR": "004557", "FILENAME": "038_153_170004557", "ORI": "OST", "TYPE": "OBL" }, "geometry": { "type": "MultiPolygon", "coordinates": [ [ [ [ 7.19118979, 51.27105575 ], [ 7.196356, 51.27422009 ], [ 7.20179534, 51.27004108 ], [ 7.1949111, 51.26792067 ], [ 7.19118979, 51.27105575 ] ] ] ] } },
{ "type": "Feature", "properties": { "LINE": "038", "WAYPOINT": "154", "CAM": "170", "LFDNR": "004558", "FILENAME": "038_154_170004558", "ORI": "OST", "TYPE": "OBL" }, "geometry": { "type": "MultiPolygon", "coordinates": [ [ [ [ 7.19213387, 51.27147503 ], [ 7.19729984, 51.27464831 ], [ 7.20272552, 51.27045106 ], [ 7.19585551, 51.26833093 ], [ 7.19213387, 51.27147503 ] ] ] ] } },
{ "type": "Feature", "properties": { "LINE": "038", "WAYPOINT": "155", "CAM": "170", "LFDNR": "004559", "FILENAME": "038_155_170004559", "ORI": "OST", "TYPE": "OBL" }, "geometry": { "type": "MultiPolygon", "coordinates": [ [ [ [ 7.19307727, 51.27191227 ], [ 7.19825733, 51.27509472 ], [ 7.20365537, 51.27087003 ], [ 7.19678525, 51.26874994 ], [ 7.19307727, 51.27191227 ] ] ] ] } },
{ "type": "Feature", "properties": { "LINE": "038", "WAYPOINT": "156", "CAM": "170", "LFDNR": "004560", "FILENAME": "038_156_170004560", "ORI": "OST", "TYPE": "OBL" }, "geometry": { "type": "MultiPolygon", "coordinates": [ [ [ [ 7.19402244, 51.27230456 ], [ 7.19921694, 51.2754872 ], [ 7.20457196, 51.2712618 ], [ 7.19771571, 51.26915097 ], [ 7.19402244, 51.27230456 ] ] ] ] } },
{ "type": "Feature", "properties": { "LINE": "038", "WAYPOINT": "157", "CAM": "170", "LFDNR": "004561", "FILENAME": "038_157_170004561", "ORI": "OST", "TYPE": "OBL" }, "geometry": { "type": "MultiPolygon", "coordinates": [ [ [ [ 7.19495401, 51.27267866 ], [ 7.20021815, 51.27591628 ], [ 7.20555985, 51.27166365 ], [ 7.19867485, 51.26955244 ], [ 7.19495401, 51.27267866 ] ] ] ] } },
{ "type": "Feature", "properties": { "LINE": "038", "WAYPOINT": "158", "CAM": "170", "LFDNR": "004562", "FILENAME": "038_158_170004562", "ORI": "OST", "TYPE": "OBL" }, "geometry": { "type": "MultiPolygon", "coordinates": [ [ [ [ 7.19585587, 51.27307926 ], [ 7.20114704, 51.27636222 ], [ 7.20651771, 51.272101 ], [ 7.19961862, 51.26998064 ], [ 7.19585587, 51.27307926 ] ] ] ] } },
{ "type": "Feature", "properties": { "LINE": "038", "WAYPOINT": "159", "CAM": "170", "LFDNR": "004563", "FILENAME": "038_159_170004563", "ORI": "OST", "TYPE": "OBL" }, "geometry": { "type": "MultiPolygon", "coordinates": [ [ [ [ 7.19674273, 51.27349762 ], [ 7.20206161, 51.27680794 ], [ 7.20733265, 51.27252716 ], [ 7.20049041, 51.27041672 ], [ 7.19674273, 51.27349762 ] ] ] ] } },
{ "type": "Feature", "properties": { "LINE": "038", "WAYPOINT": "160", "CAM": "170", "LFDNR": "004564", "FILENAME": "038_160_170004564", "ORI": "OST", "TYPE": "OBL" }, "geometry": { "type": "MultiPolygon", "coordinates": [ [ [ [ 7.19767223, 51.27392561 ], [ 7.20294999, 51.27719029 ], [ 7.20823463, 51.27292768 ], [ 7.20137761, 51.27082605 ], [ 7.19767223, 51.27392561 ] ] ] ] } },
{ "type": "Feature", "properties": { "LINE": "038", "WAYPOINT": "161", "CAM": "170", "LFDNR": "004565", "FILENAME": "038_161_170004565", "ORI": "OST", "TYPE": "OBL" }, "geometry": { "type": "MultiPolygon", "coordinates": [ [ [ [ 7.19858777, 51.27434439 ], [ 7.203866, 51.27760005 ], [ 7.2091499, 51.27335536 ], [ 7.2022781, 51.27126256 ], [ 7.19858777, 51.27434439 ] ] ] ] } },
{ "type": "Feature", "properties": { "LINE": "038", "WAYPOINT": "162", "CAM": "170", "LFDNR": "004566", "FILENAME": "038_162_170004566", "ORI": "OST", "TYPE": "OBL" }, "geometry": { "type": "MultiPolygon", "coordinates": [ [ [ [ 7.19953234, 51.27475462 ], [ 7.20469919, 51.27792758 ], [ 7.21009454, 51.2737655 ], [ 7.20323696, 51.27167298 ], [ 7.19953234, 51.27475462 ] ] ] ] } },
{ "type": "Feature", "properties": { "LINE": "038", "WAYPOINT": "163", "CAM": "170", "LFDNR": "004567", "FILENAME": "038_163_170004567", "ORI": "OST", "TYPE": "OBL" }, "geometry": { "type": "MultiPolygon", "coordinates": [ [ [ [ 7.20047728, 51.27515585 ], [ 7.20561628, 51.27831036 ], [ 7.21102523, 51.27416643 ], [ 7.20416754, 51.27207396 ], [ 7.20047728, 51.27515585 ] ] ] ] } },
{ "type": "Feature", "properties": { "LINE": "038", "WAYPOINT": "164", "CAM": "170", "LFDNR": "004568", "FILENAME": "038_164_170004568", "ORI": "OST", "TYPE": "OBL" }, "geometry": { "type": "MultiPolygon", "coordinates": [ [ [ [ 7.2014065, 51.27559281 ], [ 7.20651765, 51.27872886 ], [ 7.21192587, 51.27460287 ], [ 7.20511107, 51.2725111 ], [ 7.2014065, 51.27559281 ] ] ] ] } },
{ "type": "Feature", "properties": { "LINE": "039", "WAYPOINT": "154", "CAM": "174", "LFDNR": "004749", "FILENAME": "039_154_174004749", "ORI": "OST", "TYPE": "OBL" }, "geometry": { "type": "MultiPolygon", "coordinates": [ [ [ [ 7.19643621, 51.27107376 ], [ 7.18949512, 51.26894316 ], [ 7.18567802, 51.27195069 ], [ 7.19107836, 51.27535271 ], [ 7.19643621, 51.27107376 ] ] ] ] } },
{ "type": "Feature", "properties": { "LINE": "039", "WAYPOINT": "155", "CAM": "174", "LFDNR": "004748", "FILENAME": "039_155_174004748", "ORI": "OST", "TYPE": "OBL" }, "geometry": { "type": "MultiPolygon", "coordinates": [ [ [ [ 7.19738069, 51.27148401 ], [ 7.1904678, 51.26936289 ], [ 7.18660845, 51.27235181 ], [ 7.19202288, 51.275763 ], [ 7.19738069, 51.27148401 ] ] ] ] } },
{ "type": "Feature", "properties": { "LINE": "039", "WAYPOINT": "156", "CAM": "174", "LFDNR": "004747", "FILENAME": "039_156_174004747", "ORI": "OST", "TYPE": "OBL" }, "geometry": { "type": "MultiPolygon", "coordinates": [ [ [ [ 7.19831016, 51.271912 ], [ 7.19139751, 51.26978195 ], [ 7.18753819, 51.2727709 ], [ 7.19289683, 51.27614521 ], [ 7.19831016, 51.271912 ] ] ] ] } },
{ "type": "Feature", "properties": { "LINE": "039", "WAYPOINT": "157", "CAM": "174", "LFDNR": "004746", "FILENAME": "039_157_174004746", "ORI": "OST", "TYPE": "OBL" }, "geometry": { "type": "MultiPolygon", "coordinates": [ [ [ [ 7.19919807, 51.27230337 ], [ 7.19231327, 51.27019179 ], [ 7.18848227, 51.2731902 ], [ 7.1937446, 51.27646406 ], [ 7.19919807, 51.27230337 ] ] ] ] } },
{ "type": "Feature", "properties": { "LINE": "039", "WAYPOINT": "158", "CAM": "174", "LFDNR": "004745", "FILENAME": "039_158_174004745", "ORI": "OST", "TYPE": "OBL" }, "geometry": { "type": "MultiPolygon", "coordinates": [ [ [ [ 7.20012898, 51.2726954 ], [ 7.19324407, 51.27058387 ], [ 7.18945503, 51.27360994 ], [ 7.19462069, 51.27679233 ], [ 7.20012898, 51.2726954 ] ] ] ] } },
{ "type": "Feature", "properties": { "LINE": "039", "WAYPOINT": "159", "CAM": "174", "LFDNR": "004744", "FILENAME": "039_159_174004744", "ORI": "OST", "TYPE": "OBL" }, "geometry": { "type": "MultiPolygon", "coordinates": [ [ [ [ 7.20111616, 51.27311526 ], [ 7.19421717, 51.27099458 ], [ 7.19045505, 51.27406606 ], [ 7.1955237, 51.27716597 ], [ 7.20111616, 51.27311526 ] ] ] ] } },
{ "type": "Feature", "properties": { "LINE": "039", "WAYPOINT": "160", "CAM": "174", "LFDNR": "004743", "FILENAME": "039_160_174004743", "ORI": "OST", "TYPE": "OBL" }, "geometry": { "type": "MultiPolygon", "coordinates": [ [ [ [ 7.20194645, 51.27351472 ], [ 7.19511865, 51.27140418 ], [ 7.19138485, 51.27448512 ], [ 7.19639735, 51.27755715 ], [ 7.20194645, 51.27351472 ] ] ] ] } },
{ "type": "Feature", "properties": { "LINE": "039", "WAYPOINT": "161", "CAM": "174", "LFDNR": "004742", "FILENAME": "039_161_174004742", "ORI": "OST", "TYPE": "OBL" }, "geometry": { "type": "MultiPolygon", "coordinates": [ [ [ [ 7.20286237, 51.27392448 ], [ 7.19601944, 51.27183175 ], [ 7.19232865, 51.27491338 ], [ 7.19735559, 51.27798559 ], [ 7.20286237, 51.27392448 ] ] ] ] } },
{ "type": "Feature", "properties": { "LINE": "039", "WAYPOINT": "162", "CAM": "174", "LFDNR": "004741", "FILENAME": "039_162_174004741", "ORI": "OST", "TYPE": "OBL" }, "geometry": { "type": "MultiPolygon", "coordinates": [ [ [ [ 7.20371995, 51.27436031 ], [ 7.19687761, 51.27224966 ], [ 7.19318826, 51.27529537 ], [ 7.19820026, 51.27838529 ], [ 7.20371995, 51.27436031 ] ] ] ] } },
{ "type": "Feature", "properties": { "LINE": "039", "WAYPOINT": "163", "CAM": "174", "LFDNR": "004740", "FILENAME": "039_163_174004740", "ORI": "OST", "TYPE": "OBL" }, "geometry": { "type": "MultiPolygon", "coordinates": [ [ [ [ 7.20457894, 51.27476019 ], [ 7.19779276, 51.27267743 ], [ 7.19407654, 51.27567779 ], [ 7.19913058, 51.2787953 ], [ 7.20457894, 51.27476019 ] ] ] ] } },
{ "type": "Feature", "properties": { "LINE": "039", "WAYPOINT": "164", "CAM": "174", "LFDNR": "004739", "FILENAME": "039_164_174004739", "ORI": "OST", "TYPE": "OBL" }, "geometry": { "type": "MultiPolygon", "coordinates": [ [ [ [ 7.20552322, 51.27517936 ], [ 7.19873729, 51.27308767 ], [ 7.19497952, 51.27605144 ], [ 7.20008887, 51.27922372 ], [ 7.20552322, 51.27517936 ] ] ] ] } },
{ "type": "Feature", "properties": { "LINE": "039", "WAYPOINT": "165", "CAM": "174", "LFDNR": "004738", "FILENAME": "039_165_174004738", "ORI": "OST", "TYPE": "OBL" }, "geometry": { "type": "MultiPolygon", "coordinates": [ [ [ [ 7.20646857, 51.27557156 ], [ 7.19965388, 51.27347948 ], [ 7.19591117, 51.27642553 ], [ 7.20106221, 51.27963438 ], [ 7.20646857, 51.27557156 ] ] ] ] } },
{ "type": "Feature", "properties": { "LINE": "039", "WAYPOINT": "166", "CAM": "174", "LFDNR": "004737", "FILENAME": "039_166_174004737", "ORI": "OST", "TYPE": "OBL" }, "geometry": { "type": "MultiPolygon", "coordinates": [ [ [ [ 7.20739856, 51.27599049 ], [ 7.2005261, 51.27390657 ], [ 7.19684072, 51.27685353 ], [ 7.20201949, 51.28008975 ], [ 7.20739856, 51.27599049 ] ] ] ] } },
{ "type": "Feature", "properties": { "LINE": "039", "WAYPOINT": "167", "CAM": "174", "LFDNR": "004736", "FILENAME": "039_167_174004736", "ORI": "OST", "TYPE": "OBL" }, "geometry": { "type": "MultiPolygon", "coordinates": [ [ [ [ 7.20828557, 51.27640876 ], [ 7.20147032, 51.27432577 ], [ 7.19779824, 51.27729994 ], [ 7.20293554, 51.28049951 ], [ 7.20828557, 51.27640876 ] ] ] ] } },
{ "type": "Feature", "properties": { "LINE": "040", "WAYPOINT": "160", "CAM": "170", "LFDNR": "005063", "FILENAME": "040_160_170005063", "ORI": "OST", "TYPE": "OBL" }, "geometry": { "type": "MultiPolygon", "coordinates": [ [ [ [ 7.18613874, 51.27517734 ], [ 7.1914696, 51.2785333 ], [ 7.19636998, 51.2742293 ], [ 7.18971145, 51.272193 ], [ 7.18613874, 51.27517734 ] ] ] ] } },
{ "type": "Feature", "properties": { "LINE": "040", "WAYPOINT": "161", "CAM": "170", "LFDNR": "005064", "FILENAME": "040_161_170005064", "ORI": "OST", "TYPE": "OBL" }, "geometry": { "type": "MultiPolygon", "coordinates": [ [ [ [ 7.18709648, 51.27561485 ], [ 7.19241419, 51.27894358 ], [ 7.19735716, 51.2746492 ], [ 7.19072718, 51.2726134 ], [ 7.18709648, 51.27561485 ] ] ] ] } },
{ "type": "Feature", "properties": { "LINE": "039", "WAYPOINT": "164", "CAM": "176", "LFDNR": "004739", "FILENAME": "039_164_176004739", "ORI": "SUED", "TYPE": "OBL" }, "geometry": { "type": "MultiPolygon", "coordinates": [ [ [ [ 7.20280689, 51.26579392 ], [ 7.19746133, 51.26356237 ], [ 7.19312846, 51.26841476 ], [ 7.19676323, 51.2700446 ], [ 7.20280689, 51.26579392 ] ] ] ] } },
{ "type": "Feature", "properties": { "LINE": "039", "WAYPOINT": "165", "CAM": "176", "LFDNR": "004738", "FILENAME": "039_165_176004738", "ORI": "SUED", "TYPE": "OBL" }, "geometry": { "type": "MultiPolygon", "coordinates": [ [ [ [ 7.2037964, 51.26615084 ], [ 7.19842176, 51.26392789 ], [ 7.19405888, 51.26881582 ], [ 7.1976794, 51.27044541 ], [ 7.2037964, 51.26615084 ] ] ] ] } },
{ "type": "Feature", "properties": { "LINE": "039", "WAYPOINT": "166", "CAM": "176", "LFDNR": "004737", "FILENAME": "039_166_176004737", "ORI": "SUED", "TYPE": "OBL" }, "geometry": { "type": "MultiPolygon", "coordinates": [ [ [ [ 7.2047405, 51.26657002 ], [ 7.19936681, 51.26432014 ], [ 7.19498792, 51.26925283 ], [ 7.19860885, 51.2708734 ], [ 7.2047405, 51.26657002 ] ] ] ] } },
{ "type": "Feature", "properties": { "LINE": "039", "WAYPOINT": "167", "CAM": "176", "LFDNR": "004736", "FILENAME": "039_167_176004736", "ORI": "SUED", "TYPE": "OBL" }, "geometry": { "type": "MultiPolygon", "coordinates": [ [ [ [ 7.20577163, 51.26696353 ], [ 7.20038492, 51.26467754 ], [ 7.19594632, 51.26967229 ], [ 7.19953831, 51.27130138 ], [ 7.20577163, 51.26696353 ] ] ] ] } },
{ "type": "Feature", "properties": { "LINE": "039", "WAYPOINT": "168", "CAM": "176", "LFDNR": "004735", "FILENAME": "039_168_176004735", "ORI": "SUED", "TYPE": "OBL" }, "geometry": { "type": "MultiPolygon", "coordinates": [ [ [ [ 7.20670214, 51.2673645 ], [ 7.20131604, 51.26506056 ], [ 7.19686142, 51.27010007 ], [ 7.20045417, 51.27171116 ], [ 7.20670214, 51.2673645 ] ] ] ] } },
{ "type": "Feature", "properties": { "LINE": "039", "WAYPOINT": "169", "CAM": "176", "LFDNR": "004734", "FILENAME": "039_169_176004734", "ORI": "SUED", "TYPE": "OBL" }, "geometry": { "type": "MultiPolygon", "coordinates": [ [ [ [ 7.20769102, 51.26773936 ], [ 7.20220068, 51.2655328 ], [ 7.1977912, 51.27051908 ], [ 7.20139835, 51.27213036 ], [ 7.20769102, 51.26773936 ] ] ] ] } },
{ "type": "Feature", "properties": { "LINE": "039", "WAYPOINT": "170", "CAM": "176", "LFDNR": "004733", "FILENAME": "039_170_176004733", "ORI": "SUED", "TYPE": "OBL" }, "geometry": { "type": "MultiPolygon", "coordinates": [ [ [ [ 7.20873827, 51.26808814 ], [ 7.20317481, 51.26591648 ], [ 7.19875072, 51.27091156 ], [ 7.20237226, 51.27252303 ], [ 7.20873827, 51.26808814 ] ] ] ] } },
{ "type": "Feature", "properties": { "LINE": "039", "WAYPOINT": "171", "CAM": "176", "LFDNR": "004732", "FILENAME": "039_171_176004732", "ORI": "SUED", "TYPE": "OBL" }, "geometry": { "type": "MultiPolygon", "coordinates": [ [ [ [ 7.20969748, 51.26848952 ], [ 7.20410598, 51.26629948 ], [ 7.19965083, 51.27135707 ], [ 7.20328747, 51.27295076 ], [ 7.20969748, 51.26848952 ] ] ] ] } },
{ "type": "Feature", "properties": { "LINE": "039", "WAYPOINT": "172", "CAM": "176", "LFDNR": "004731", "FILENAME": "039_172_176004731", "ORI": "SUED", "TYPE": "OBL" }, "geometry": { "type": "MultiPolygon", "coordinates": [ [ [ [ 7.21069969, 51.26889154 ], [ 7.20509516, 51.26666539 ], [ 7.20058067, 51.27177606 ], [ 7.20421702, 51.27337871 ], [ 7.21069969, 51.26889154 ] ] ] ] } },
{ "type": "Feature", "properties": { "LINE": "039", "WAYPOINT": "173", "CAM": "176", "LFDNR": "004730", "FILENAME": "039_173_176004730", "ORI": "SUED", "TYPE": "OBL" }, "geometry": { "type": "MultiPolygon", "coordinates": [ [ [ [ 7.21159988, 51.26933697 ], [ 7.20602461, 51.26709331 ], [ 7.20150947, 51.272222 ], [ 7.20514624, 51.27381563 ], [ 7.21159988, 51.26933697 ] ] ] ] } },
{ "type": "Feature", "properties": { "LINE": "039", "WAYPOINT": "174", "CAM": "176", "LFDNR": "004729", "FILENAME": "039_174_176004729", "ORI": "SUED", "TYPE": "OBL" }, "geometry": { "type": "MultiPolygon", "coordinates": [ [ [ [ 7.21258884, 51.26971179 ], [ 7.20699985, 51.26744999 ], [ 7.20245507, 51.27260524 ], [ 7.20609086, 51.27422581 ], [ 7.21258884, 51.26971179 ] ] ] ] } },
{ "type": "Feature", "properties": { "LINE": "040", "WAYPOINT": "167", "CAM": "171", "LFDNR": "005070", "FILENAME": "040_167_171005070", "ORI": "SUED", "TYPE": "OBL" }, "geometry": { "type": "MultiPolygon", "coordinates": [ [ [ [ 7.19076717, 51.27050065 ], [ 7.1943891, 51.27209439 ], [ 7.20107801, 51.26748503 ], [ 7.19546544, 51.26511439 ], [ 7.19076717, 51.27050065 ] ] ] ] } },
{ "type": "Feature", "properties": { "LINE": "040", "WAYPOINT": "168", "CAM": "171", "LFDNR": "005071", "FILENAME": "040_168_171005071", "ORI": "SUED", "TYPE": "OBL" }, "geometry": { "type": "MultiPolygon", "coordinates": [ [ [ [ 7.19171018, 51.27094689 ], [ 7.19527416, 51.27255769 ], [ 7.20199136, 51.26795771 ], [ 7.19640768, 51.26557857 ], [ 7.19171018, 51.27094689 ] ] ] ] } },
{ "type": "Feature", "properties": { "LINE": "040", "WAYPOINT": "169", "CAM": "171", "LFDNR": "005072", "FILENAME": "040_169_171005072", "ORI": "SUED", "TYPE": "OBL" }, "geometry": { "type": "MultiPolygon", "coordinates": [ [ [ [ 7.19264099, 51.27133897 ], [ 7.19618965, 51.27297649 ], [ 7.20297986, 51.2683416 ], [ 7.19736778, 51.26595308 ], [ 7.19264099, 51.27133897 ] ] ] ] } },
{ "type": "Feature", "properties": { "LINE": "040", "WAYPOINT": "170", "CAM": "171", "LFDNR": "005073", "FILENAME": "040_170_171005073", "ORI": "SUED", "TYPE": "OBL" }, "geometry": { "type": "MultiPolygon", "coordinates": [ [ [ [ 7.19354105, 51.27178453 ], [ 7.19706112, 51.27342158 ], [ 7.20386669, 51.2687599 ], [ 7.19825451, 51.26637143 ], [ 7.19354105, 51.27178453 ] ] ] ] } },
{ "type": "Feature", "properties": { "LINE": "040", "WAYPOINT": "171", "CAM": "171", "LFDNR": "005074", "FILENAME": "040_171_171005074", "ORI": "SUED", "TYPE": "OBL" }, "geometry": { "type": "MultiPolygon", "coordinates": [ [ [ [ 7.19447014, 51.27222154 ], [ 7.19799063, 51.27384958 ], [ 7.20479546, 51.26920582 ], [ 7.19922792, 51.26677311 ], [ 7.19447014, 51.27222154 ] ] ] ] } },
{ "type": "Feature", "properties": { "LINE": "040", "WAYPOINT": "172", "CAM": "171", "LFDNR": "005075", "FILENAME": "040_172_171005075", "ORI": "SUED", "TYPE": "OBL" }, "geometry": { "type": "MultiPolygon", "coordinates": [ [ [ [ 7.19539924, 51.27265854 ], [ 7.19890652, 51.27425937 ], [ 7.20578472, 51.26957172 ], [ 7.20014369, 51.26718289 ], [ 7.19539924, 51.27265854 ] ] ] ] } },
{ "type": "Feature", "properties": { "LINE": "040", "WAYPOINT": "173", "CAM": "171", "LFDNR": "005076", "FILENAME": "040_173_171005076", "ORI": "SUED", "TYPE": "OBL" }, "geometry": { "type": "MultiPolygon", "coordinates": [ [ [ [ 7.19629794, 51.27314003 ], [ 7.19980635, 51.27471387 ], [ 7.20668452, 51.27002617 ], [ 7.20104234, 51.26766434 ], [ 7.19629794, 51.27314003 ] ] ] ] } },
{ "type": "Feature", "properties": { "LINE": "040", "WAYPOINT": "174", "CAM": "171", "LFDNR": "005077", "FILENAME": "040_174_171005077", "ORI": "SUED", "TYPE": "OBL" }, "geometry": { "type": "MultiPolygon", "coordinates": [ [ [ [ 7.19721275, 51.2735768 ], [ 7.20073555, 51.27515083 ], [ 7.20759902, 51.27047184 ], [ 7.20197142, 51.26810129 ], [ 7.19721275, 51.2735768 ] ] ] ] } },
{ "type": "Feature", "properties": { "LINE": "040", "WAYPOINT": "175", "CAM": "171", "LFDNR": "005078", "FILENAME": "040_175_171005078", "ORI": "SUED", "TYPE": "OBL" }, "geometry": { "type": "MultiPolygon", "coordinates": [ [ [ [ 7.19814261, 51.2739958 ], [ 7.20165115, 51.27556959 ], [ 7.20849991, 51.27089931 ], [ 7.20290191, 51.26850228 ], [ 7.19814261, 51.2739958 ] ] ] ] } },
{ "type": "Feature", "properties": { "LINE": "040", "WAYPOINT": "176", "CAM": "171", "LFDNR": "005079", "FILENAME": "040_176_171005079", "ORI": "SUED", "TYPE": "OBL" }, "geometry": { "type": "MultiPolygon", "coordinates": [ [ [ [ 7.19907249, 51.2744148 ], [ 7.20258144, 51.27597957 ], [ 7.20948888, 51.27127417 ], [ 7.20386248, 51.26886776 ], [ 7.19907249, 51.2744148 ] ] ] ] } },
{ "type": "Feature", "properties": { "LINE": "040", "WAYPOINT": "177", "CAM": "171", "LFDNR": "005080", "FILENAME": "040_177_171005080", "ORI": "SUED", "TYPE": "OBL" }, "geometry": { "type": "MultiPolygon", "coordinates": [ [ [ [ 7.20001707, 51.27482503 ], [ 7.2035114, 51.27639853 ], [ 7.21040448, 51.27169285 ], [ 7.20480804, 51.26925098 ], [ 7.20001707, 51.27482503 ] ] ] ] } },
{ "type": "Feature", "properties": { "LINE": "040", "WAYPOINT": "178", "CAM": "171", "LFDNR": "005081", "FILENAME": "040_178_171005081", "ORI": "SUED", "TYPE": "OBL" }, "geometry": { "type": "MultiPolygon", "coordinates": [ [ [ [ 7.20096166, 51.27523524 ], [ 7.20442704, 51.27681727 ], [ 7.21137811, 51.27209444 ], [ 7.20576724, 51.26965239 ], [ 7.20096166, 51.27523524 ] ] ] ] } },
{ "type": "Feature", "properties": { "LINE": "040", "WAYPOINT": "179", "CAM": "171", "LFDNR": "005082", "FILENAME": "040_179_171005082", "ORI": "SUED", "TYPE": "OBL" }, "geometry": { "type": "MultiPolygon", "coordinates": [ [ [ [ 7.20189194, 51.27564523 ], [ 7.20534271, 51.277236 ], [ 7.21232275, 51.27250456 ], [ 7.20671213, 51.27005357 ], [ 7.20189194, 51.27564523 ] ] ] ] } },
{ "type": "Feature", "properties": { "LINE": "041", "WAYPOINT": "167", "CAM": "176", "LFDNR": "005259", "FILENAME": "041_167_176005259", "ORI": "SUED", "TYPE": "OBL" }, "geometry": { "type": "MultiPolygon", "coordinates": [ [ [ [ 7.19793132, 51.26913631 ], [ 7.19226741, 51.26661185 ], [ 7.18726153, 51.27251481 ], [ 7.19080317, 51.27396353 ], [ 7.19793132, 51.26913631 ] ] ] ] } },
{ "type": "Feature", "properties": { "LINE": "041", "WAYPOINT": "168", "CAM": "176", "LFDNR": "005258", "FILENAME": "041_168_176005258", "ORI": "SUED", "TYPE": "OBL" }, "geometry": { "type": "MultiPolygon", "coordinates": [ [ [ [ 7.19884677, 51.26955509 ], [ 7.19318311, 51.26702168 ], [ 7.18819163, 51.2729249 ], [ 7.19174766, 51.27437382 ], [ 7.19884677, 51.26955509 ] ] ] ] } },
{ "type": "Feature", "properties": { "LINE": "041", "WAYPOINT": "169", "CAM": "176", "LFDNR": "005257", "FILENAME": "041_169_176005257", "ORI": "SUED", "TYPE": "OBL" }, "geometry": { "type": "MultiPolygon", "coordinates": [ [ [ [ 7.19966019, 51.27001725 ], [ 7.19400899, 51.26752905 ], [ 7.18909274, 51.27334354 ], [ 7.19261911, 51.27481894 ], [ 7.19966019, 51.27001725 ] ] ] ] } },
{ "type": "Feature", "properties": { "LINE": "041", "WAYPOINT": "170", "CAM": "176", "LFDNR": "005256", "FILENAME": "041_170_176005256", "ORI": "SUED", "TYPE": "OBL" }, "geometry": { "type": "MultiPolygon", "coordinates": [ [ [ [ 7.20064872, 51.27040117 ], [ 7.1950128, 51.26788627 ], [ 7.19006797, 51.27370036 ], [ 7.19353498, 51.27522877 ], [ 7.20064872, 51.27040117 ] ] ] ] } },
{ "type": "Feature", "properties": { "LINE": "041", "WAYPOINT": "171", "CAM": "176", "LFDNR": "005255", "FILENAME": "041_171_176005255", "ORI": "SUED", "TYPE": "OBL" }, "geometry": { "type": "MultiPolygon", "coordinates": [ [ [ [ 7.20162188, 51.27081182 ], [ 7.19600089, 51.26827921 ], [ 7.1910572, 51.27406638 ], [ 7.1944498, 51.27566556 ], [ 7.20162188, 51.27081182 ] ] ] ] } },
{ "type": "Feature", "properties": { "LINE": "041", "WAYPOINT": "172", "CAM": "176", "LFDNR": "005254", "FILENAME": "041_172_176005254", "ORI": "SUED", "TYPE": "OBL" }, "geometry": { "type": "MultiPolygon", "coordinates": [ [ [ [ 7.2025367, 51.27124855 ], [ 7.19691595, 51.26870699 ], [ 7.19198737, 51.27447644 ], [ 7.19535067, 51.27609314 ], [ 7.2025367, 51.27124855 ] ] ] ] } },
{ "type": "Feature", "properties": { "LINE": "041", "WAYPOINT": "173", "CAM": "176", "LFDNR": "005253", "FILENAME": "041_173_176005253", "ORI": "SUED", "TYPE": "OBL" }, "geometry": { "type": "MultiPolygon", "coordinates": [ [ [ [ 7.20346621, 51.2716765 ], [ 7.19785969, 51.26913521 ], [ 7.19291685, 51.27490448 ], [ 7.19628056, 51.27651216 ], [ 7.20346621, 51.2716765 ] ] ] ] } },
{ "type": "Feature", "properties": { "LINE": "041", "WAYPOINT": "174", "CAM": "176", "LFDNR": "005252", "FILENAME": "041_174_176005252", "ORI": "SUED", "TYPE": "OBL" }, "geometry": { "type": "MultiPolygon", "coordinates": [ [ [ [ 7.20436779, 51.27208602 ], [ 7.19876046, 51.26956275 ], [ 7.19383095, 51.27535924 ], [ 7.19722551, 51.27691341 ], [ 7.20436779, 51.27208602 ] ] ] ] } },
{ "type": "Feature", "properties": { "LINE": "041", "WAYPOINT": "175", "CAM": "176", "LFDNR": "005251", "FILENAME": "041_175_176005251", "ORI": "SUED", "TYPE": "OBL" }, "geometry": { "type": "MultiPolygon", "coordinates": [ [ [ [ 7.20543049, 51.27240809 ], [ 7.19978078, 51.26986623 ], [ 7.19478983, 51.27576973 ], [ 7.1982582, 51.27727105 ], [ 7.20543049, 51.27240809 ] ] ] ] } },
{ "type": "Feature", "properties": { "LINE": "041", "WAYPOINT": "176", "CAM": "176", "LFDNR": "005250", "FILENAME": "041_176_176005250", "ORI": "SUED", "TYPE": "OBL" }, "geometry": { "type": "MultiPolygon", "coordinates": [ [ [ [ 7.20647783, 51.27275688 ], [ 7.20075568, 51.27023195 ], [ 7.19574942, 51.27616223 ], [ 7.19924687, 51.27765498 ], [ 7.20647783, 51.27275688 ] ] ] ] } },
{ "type": "Feature", "properties": { "LINE": "041", "WAYPOINT": "177", "CAM": "176", "LFDNR": "005249", "FILENAME": "041_177_176005249", "ORI": "SUED", "TYPE": "OBL" }, "geometry": { "type": "MultiPolygon", "coordinates": [ [ [ [ 7.2074808, 51.27314096 ], [ 7.20174493, 51.27059788 ], [ 7.19670904, 51.27655473 ], [ 7.20020619, 51.27805643 ], [ 7.2074808, 51.27314096 ] ] ] ] } },
{ "type": "Feature", "properties": { "LINE": "041", "WAYPOINT": "178", "CAM": "176", "LFDNR": "005248", "FILENAME": "041_178_176005248", "ORI": "SUED", "TYPE": "OBL" }, "geometry": { "type": "MultiPolygon", "coordinates": [ [ [ [ 7.2084104, 51.27356887 ], [ 7.2026884, 51.27103504 ], [ 7.19766937, 51.27692924 ], [ 7.20116518, 51.27846687 ], [ 7.2084104, 51.27356887 ] ] ] ] } },
{ "type": "Feature", "properties": { "LINE": "041", "WAYPOINT": "179", "CAM": "176", "LFDNR": "005247", "FILENAME": "041_179_176005247", "ORI": "SUED", "TYPE": "OBL" }, "geometry": { "type": "MultiPolygon", "coordinates": [ [ [ [ 7.20929738, 51.27398713 ], [ 7.20357492, 51.27146233 ], [ 7.19860036, 51.27732128 ], [ 7.20212454, 51.27886831 ], [ 7.20929738, 51.27398713 ] ] ] ] } },
{ "type": "Feature", "properties": { "LINE": "041", "WAYPOINT": "180", "CAM": "176", "LFDNR": "005246", "FILENAME": "041_180_176005246", "ORI": "SUED", "TYPE": "OBL" }, "geometry": { "type": "MultiPolygon", "coordinates": [ [ [ [ 7.21034409, 51.27435387 ], [ 7.20460825, 51.27180194 ], [ 7.19958938, 51.27769622 ], [ 7.20314229, 51.27924366 ], [ 7.21034409, 51.27435387 ] ] ] ] } },
{ "type": "Feature", "properties": { "LINE": "042", "WAYPOINT": "168", "CAM": "171", "LFDNR": "005594", "FILENAME": "042_168_171005594", "ORI": "SUED", "TYPE": "OBL" }, "geometry": { "type": "MultiPolygon", "coordinates": [ [ [ [ 7.18587605, 51.27493046 ], [ 7.18944578, 51.27639764 ], [ 7.19666254, 51.27151791 ], [ 7.19097328, 51.26890307 ], [ 7.18587605, 51.27493046 ] ] ] ] } },
{ "type": "Feature", "properties": { "LINE": "042", "WAYPOINT": "169", "CAM": "171", "LFDNR": "005595", "FILENAME": "042_169_171005595", "ORI": "SUED", "TYPE": "OBL" }, "geometry": { "type": "MultiPolygon", "coordinates": [ [ [ [ 7.18680548, 51.27535854 ], [ 7.19038961, 51.27682592 ], [ 7.19756194, 51.27198142 ], [ 7.19190158, 51.26935807 ], [ 7.18680548, 51.27535854 ] ] ] ] } },
{ "type": "Feature", "properties": { "LINE": "042", "WAYPOINT": "170", "CAM": "171", "LFDNR": "005596", "FILENAME": "042_170_171005596", "ORI": "SUED", "TYPE": "OBL" }, "geometry": { "type": "MultiPolygon", "coordinates": [ [ [ [ 7.18772024, 51.27579538 ], [ 7.19126003, 51.27729801 ], [ 7.19837363, 51.27248853 ], [ 7.19275473, 51.26990184 ], [ 7.18772024, 51.27579538 ] ] ] ] } },
{ "type": "Feature", "properties": { "LINE": "042", "WAYPOINT": "171", "CAM": "171", "LFDNR": "005597", "FILENAME": "042_171_171005597", "ORI": "SUED", "TYPE": "OBL" }, "geometry": { "type": "MultiPolygon", "coordinates": [ [ [ [ 7.1886214, 51.27621402 ], [ 7.19211685, 51.27775191 ], [ 7.1992161, 51.27294215 ], [ 7.19361107, 51.27036471 ], [ 7.1886214, 51.27621402 ] ] ] ] } },
{ "type": "Feature", "properties": { "LINE": "042", "WAYPOINT": "172", "CAM": "171", "LFDNR": "005598", "FILENAME": "042_172_171005598", "ORI": "SUED", "TYPE": "OBL" }, "geometry": { "type": "MultiPolygon", "coordinates": [ [ [ [ 7.18952222, 51.27664163 ], [ 7.1929583, 51.27823254 ], [ 7.20001315, 51.27345802 ], [ 7.19448, 51.27087274 ], [ 7.18952222, 51.27664163 ] ] ] ] } },
{ "type": "Feature", "properties": { "LINE": "042", "WAYPOINT": "173", "CAM": "171", "LFDNR": "005599", "FILENAME": "042_173_171005599", "ORI": "SUED", "TYPE": "OBL" }, "geometry": { "type": "MultiPolygon", "coordinates": [ [ [ [ 7.190422, 51.27709621 ], [ 7.19382948, 51.27868665 ], [ 7.20081056, 51.2739649 ], [ 7.19535071, 51.27133582 ], [ 7.190422, 51.27709621 ] ] ] ] } },
{ "type": "Feature", "properties": { "LINE": "042", "WAYPOINT": "174", "CAM": "171", "LFDNR": "005600", "FILENAME": "042_174_171005600", "ORI": "SUED", "TYPE": "OBL" }, "geometry": { "type": "MultiPolygon", "coordinates": [ [ [ [ 7.19135116, 51.27753324 ], [ 7.19470103, 51.27913176 ], [ 7.20176982, 51.27436634 ], [ 7.19626477, 51.27179057 ], [ 7.19135116, 51.27753324 ] ] ] ] } },
{ "type": "Feature", "properties": { "LINE": "042", "WAYPOINT": "175", "CAM": "171", "LFDNR": "005601", "FILENAME": "042_175_171005601", "ORI": "SUED", "TYPE": "OBL" }, "geometry": { "type": "MultiPolygon", "coordinates": [ [ [ [ 7.19225027, 51.27800578 ], [ 7.1955719, 51.27959484 ], [ 7.20262599, 51.27483814 ], [ 7.19711943, 51.27229835 ], [ 7.19225027, 51.27800578 ] ] ] ] } },
{ "type": "Feature", "properties": { "LINE": "042", "WAYPOINT": "176", "CAM": "171", "LFDNR": "005602", "FILENAME": "042_176_171005602", "ORI": "SUED", "TYPE": "OBL" }, "geometry": { "type": "MultiPolygon", "coordinates": [ [ [ [ 7.19314975, 51.27846932 ], [ 7.19645781, 51.28004016 ], [ 7.2034675, 51.27531869 ], [ 7.19803353, 51.27275309 ], [ 7.19314975, 51.27846932 ] ] ] ] } },
{ "type": "Feature", "properties": { "LINE": "042", "WAYPOINT": "177", "CAM": "171", "LFDNR": "005603", "FILENAME": "042_177_171005603", "ORI": "SUED", "TYPE": "OBL" }, "geometry": { "type": "MultiPolygon", "coordinates": [ [ [ [ 7.19403456, 51.27894162 ], [ 7.1973441, 51.28047648 ], [ 7.20417796, 51.27585119 ], [ 7.19891899, 51.27320737 ], [ 7.19403456, 51.27894162 ] ] ] ] } },
{ "type": "Feature", "properties": { "LINE": "042", "WAYPOINT": "178", "CAM": "171", "LFDNR": "005604", "FILENAME": "042_178_171005604", "ORI": "SUED", "TYPE": "OBL" }, "geometry": { "type": "MultiPolygon", "coordinates": [ [ [ [ 7.19502558, 51.27963138 ], [ 7.19836738, 51.28107678 ], [ 7.20492231, 51.27661802 ], [ 7.19960723, 51.27430612 ], [ 7.19502558, 51.27963138 ] ] ] ] } },
{ "type": "Feature", "properties": { "LINE": "036", "WAYPOINT": "169", "CAM": "174", "LFDNR": "004100", "FILENAME": "036_169_174004100", "ORI": "WEST", "TYPE": "OBL" }, "geometry": { "type": "MultiPolygon", "coordinates": [ [ [ [ 7.19686507, 51.26817562 ], [ 7.2037781, 51.27029635 ], [ 7.20757642, 51.2673689 ], [ 7.20280183, 51.26445388 ], [ 7.19686507, 51.26817562 ] ] ] ] } },
{ "type": "Feature", "properties": { "LINE": "036", "WAYPOINT": "170", "CAM": "174", "LFDNR": "004101", "FILENAME": "036_170_174004101", "ORI": "WEST", "TYPE": "OBL" }, "geometry": { "type": "MultiPolygon", "coordinates": [ [ [ [ 7.19778085, 51.26858542 ], [ 7.2046793, 51.27071487 ], [ 7.20849262, 51.26776962 ], [ 7.20377384, 51.26489147 ], [ 7.19778085, 51.26858542 ] ] ] ] } },
{ "type": "Feature", "properties": { "LINE": "036", "WAYPOINT": "171", "CAM": "174", "LFDNR": "004102", "FILENAME": "036_171_174004102", "ORI": "WEST", "TYPE": "OBL" }, "geometry": { "type": "MultiPolygon", "coordinates": [ [ [ [ 7.19863792, 51.26903028 ], [ 7.20555081, 51.2711599 ], [ 7.20935118, 51.26817846 ], [ 7.204604, 51.26529091 ], [ 7.19863792, 51.26903028 ] ] ] ] } },
{ "type": "Feature", "properties": { "LINE": "036", "WAYPOINT": "172", "CAM": "174", "LFDNR": "004103", "FILENAME": "036_172_174004103", "ORI": "WEST", "TYPE": "OBL" }, "geometry": { "type": "MultiPolygon", "coordinates": [ [ [ [ 7.19949502, 51.26947513 ], [ 7.20642234, 51.27160492 ], [ 7.21023772, 51.26860569 ], [ 7.20539261, 51.26565373 ], [ 7.19949502, 51.26947513 ] ] ] ] } },
{ "type": "Feature", "properties": { "LINE": "036", "WAYPOINT": "173", "CAM": "174", "LFDNR": "004104", "FILENAME": "036_173_174004104", "ORI": "WEST", "TYPE": "OBL" }, "geometry": { "type": "MultiPolygon", "coordinates": [ [ [ [ 7.20035353, 51.26988403 ], [ 7.20732359, 51.27202342 ], [ 7.21112497, 51.26901495 ], [ 7.20621057, 51.26599901 ], [ 7.20035353, 51.26988403 ] ] ] ] } },
{ "type": "Feature", "properties": { "LINE": "036", "WAYPOINT": "174", "CAM": "174", "LFDNR": "004105", "FILENAME": "036_174_174004105", "ORI": "WEST", "TYPE": "OBL" }, "geometry": { "type": "MultiPolygon", "coordinates": [ [ [ [ 7.20131165, 51.27031244 ], [ 7.20828217, 51.27244278 ], [ 7.21205522, 51.26942486 ], [ 7.20709844, 51.26639033 ], [ 7.20131165, 51.27031244 ] ] ] ] } },
{ "type": "Feature", "properties": { "LINE": "036", "WAYPOINT": "175", "CAM": "174", "LFDNR": "004106", "FILENAME": "036_175_174004106", "ORI": "WEST", "TYPE": "OBL" }, "geometry": { "type": "MultiPolygon", "coordinates": [ [ [ [ 7.20226944, 51.27074982 ], [ 7.20919743, 51.27287047 ], [ 7.21295717, 51.26982533 ], [ 7.20799994, 51.26679983 ], [ 7.20226944, 51.27074982 ] ] ] ] } },
{ "type": "Feature", "properties": { "LINE": "036", "WAYPOINT": "176", "CAM": "174", "LFDNR": "004107", "FILENAME": "036_176_174004107", "ORI": "WEST", "TYPE": "OBL" }, "geometry": { "type": "MultiPolygon", "coordinates": [ [ [ [ 7.20324227, 51.27116945 ], [ 7.21014171, 51.2732896 ], [ 7.21390178, 51.27023545 ], [ 7.20893047, 51.26720077 ], [ 7.20324227, 51.27116945 ] ] ] ] } },
{ "type": "Feature", "properties": { "LINE": "037", "WAYPOINT": "163", "CAM": "170", "LFDNR": "004241", "FILENAME": "037_163_170004241", "ORI": "WEST", "TYPE": "OBL" }, "geometry": { "type": "MultiPolygon", "coordinates": [ [ [ [ 7.20026736, 51.26731969 ], [ 7.1952274, 51.2642384 ], [ 7.18962155, 51.26827963 ], [ 7.19654857, 51.27040102 ], [ 7.20026736, 51.26731969 ] ] ] ] } },
{ "type": "Feature", "properties": { "LINE": "037", "WAYPOINT": "164", "CAM": "170", "LFDNR": "004240", "FILENAME": "037_164_170004240", "ORI": "WEST", "TYPE": "OBL" }, "geometry": { "type": "MultiPolygon", "coordinates": [ [ [ [ 7.2012111, 51.26774787 ], [ 7.19615706, 51.26465742 ], [ 7.19055124, 51.2686987 ], [ 7.19747836, 51.27082003 ], [ 7.2012111, 51.26774787 ] ] ] ] } },
{ "type": "Feature", "properties": { "LINE": "037", "WAYPOINT": "165", "CAM": "170", "LFDNR": "004239", "FILENAME": "037_165_170004239", "ORI": "WEST", "TYPE": "OBL" }, "geometry": { "type": "MultiPolygon", "coordinates": [ [ [ [ 7.20211223, 51.26816641 ], [ 7.19708603, 51.2650944 ], [ 7.19145193, 51.2691263 ], [ 7.19839349, 51.2712478 ], [ 7.20211223, 51.26816641 ] ] ] ] } },
{ "type": "Feature", "properties": { "LINE": "037", "WAYPOINT": "166", "CAM": "170", "LFDNR": "004238", "FILENAME": "037_166_170004238", "ORI": "WEST", "TYPE": "OBL" }, "geometry": { "type": "MultiPolygon", "coordinates": [ [ [ [ 7.20304308, 51.26855841 ], [ 7.19796087, 51.26544961 ], [ 7.19236767, 51.26953614 ], [ 7.199338, 51.27165802 ], [ 7.20304308, 51.26855841 ] ] ] ] } },
{ "type": "Feature", "properties": { "LINE": "037", "WAYPOINT": "167", "CAM": "170", "LFDNR": "004237", "FILENAME": "037_167_170004237", "ORI": "WEST", "TYPE": "OBL" }, "geometry": { "type": "MultiPolygon", "coordinates": [ [ [ [ 7.20398792, 51.26895961 ], [ 7.19883573, 51.26580482 ], [ 7.19332641, 51.26994664 ], [ 7.20029684, 51.27206847 ], [ 7.20398792, 51.26895961 ] ] ] ] } },
{ "type": "Feature", "properties": { "LINE": "037", "WAYPOINT": "168", "CAM": "170", "LFDNR": "004236", "FILENAME": "037_168_170004236", "ORI": "WEST", "TYPE": "OBL" }, "geometry": { "type": "MultiPolygon", "coordinates": [ [ [ [ 7.2048898, 51.26936015 ], [ 7.19971026, 51.266169 ], [ 7.19421389, 51.27034703 ], [ 7.2011984, 51.27247802 ], [ 7.2048898, 51.26936015 ] ] ] ] } },
{ "type": "Feature", "properties": { "LINE": "037", "WAYPOINT": "169", "CAM": "170", "LFDNR": "004235", "FILENAME": "037_169_170004235", "ORI": "WEST", "TYPE": "OBL" }, "geometry": { "type": "MultiPolygon", "coordinates": [ [ [ [ 7.20580602, 51.2697609 ], [ 7.20062531, 51.26659675 ], [ 7.1951433, 51.27077505 ], [ 7.20211359, 51.27290576 ], [ 7.20580602, 51.2697609 ] ] ] ] } },
{ "type": "Feature", "properties": { "LINE": "037", "WAYPOINT": "170", "CAM": "170", "LFDNR": "004234", "FILENAME": "037_170_170004234", "ORI": "WEST", "TYPE": "OBL" }, "geometry": { "type": "MultiPolygon", "coordinates": [ [ [ [ 7.20673623, 51.27017085 ], [ 7.20158302, 51.26703414 ], [ 7.19611572, 51.27120372 ], [ 7.20305782, 51.27332495 ], [ 7.20673623, 51.27017085 ] ] ] ] } },
{ "type": "Feature", "properties": { "LINE": "037", "WAYPOINT": "171", "CAM": "170", "LFDNR": "004233", "FILENAME": "037_171_170004233", "ORI": "WEST", "TYPE": "OBL" }, "geometry": { "type": "MultiPolygon", "coordinates": [ [ [ [ 7.20768149, 51.27056303 ], [ 7.20254249, 51.26742659 ], [ 7.19710354, 51.27160564 ], [ 7.20400275, 51.27372615 ], [ 7.20768149, 51.27056303 ] ] ] ] } },
{ "type": "Feature", "properties": { "LINE": "037", "WAYPOINT": "172", "CAM": "170", "LFDNR": "004232", "FILENAME": "037_172_170004232", "ORI": "WEST", "TYPE": "OBL" }, "geometry": { "type": "MultiPolygon", "coordinates": [ [ [ [ 7.20858168, 51.27100848 ], [ 7.20338702, 51.26782626 ], [ 7.19798967, 51.27204196 ], [ 7.20487502, 51.27415321 ], [ 7.20858168, 51.27100848 ] ] ] ] } },
{ "type": "Feature", "properties": { "LINE": "037", "WAYPOINT": "173", "CAM": "170", "LFDNR": "004231", "FILENAME": "037_173_170004231", "ORI": "WEST", "TYPE": "OBL" }, "geometry": { "type": "MultiPolygon", "coordinates": [ [ [ [ 7.20954095, 51.27140986 ], [ 7.2043322, 51.26821847 ], [ 7.19896284, 51.27245263 ], [ 7.2058483, 51.27456382 ], [ 7.20954095, 51.27140986 ] ] ] ] } },
{ "type": "Feature", "properties": { "LINE": "037", "WAYPOINT": "174", "CAM": "170", "LFDNR": "004230", "FILENAME": "037_174_170004230", "ORI": "WEST", "TYPE": "OBL" }, "geometry": { "type": "MultiPolygon", "coordinates": [ [ [ [ 7.21045656, 51.27182855 ], [ 7.20520576, 51.26860958 ], [ 7.19986404, 51.27287118 ], [ 7.20674925, 51.27499131 ], [ 7.21045656, 51.27182855 ] ] ] ] } },
{ "type": "Feature", "properties": { "LINE": "037", "WAYPOINT": "175", "CAM": "170", "LFDNR": "004229", "FILENAME": "037_175_170004229", "ORI": "WEST", "TYPE": "OBL" }, "geometry": { "type": "MultiPolygon", "coordinates": [ [ [ [ 7.2113865, 51.27224745 ], [ 7.20610799, 51.26900112 ], [ 7.20080824, 51.27329039 ], [ 7.20770788, 51.27541068 ], [ 7.2113865, 51.27224745 ] ] ] ] } },
{ "type": "Feature", "properties": { "LINE": "037", "WAYPOINT": "176", "CAM": "170", "LFDNR": "004228", "FILENAME": "037_176_170004228", "ORI": "WEST", "TYPE": "OBL" }, "geometry": { "type": "MultiPolygon", "coordinates": [ [ [ [ 7.21236015, 51.27264902 ], [ 7.20708153, 51.26940273 ], [ 7.2019237, 51.2737302 ], [ 7.2087242, 51.27582193 ], [ 7.21236015, 51.27264902 ] ] ] ] } },
{ "type": "Feature", "properties": { "LINE": "037", "WAYPOINT": "177", "CAM": "170", "LFDNR": "004227", "FILENAME": "037_177_170004227", "ORI": "WEST", "TYPE": "OBL" }, "geometry": { "type": "MultiPolygon", "coordinates": [ [ [ [ 7.21333312, 51.27306856 ], [ 7.20809666, 51.26984095 ], [ 7.20298221, 51.27416014 ], [ 7.20974019, 51.27624216 ], [ 7.21333312, 51.27306856 ] ] ] ] } },
{ "type": "Feature", "properties": { "LINE": "038", "WAYPOINT": "168", "CAM": "174", "LFDNR": "004572", "FILENAME": "038_168_174004572", "ORI": "WEST", "TYPE": "OBL" }, "geometry": { "type": "MultiPolygon", "coordinates": [ [ [ [ 7.18814594, 51.27044211 ], [ 7.19441905, 51.27242759 ], [ 7.1979271, 51.26924416 ], [ 7.19254022, 51.26586964 ], [ 7.18814594, 51.27044211 ] ] ] ] } },
{ "type": "Feature", "properties": { "LINE": "038", "WAYPOINT": "169", "CAM": "174", "LFDNR": "004573", "FILENAME": "038_169_174004573", "ORI": "WEST", "TYPE": "OBL" }, "geometry": { "type": "MultiPolygon", "coordinates": [ [ [ [ 7.18891875, 51.27084078 ], [ 7.19536283, 51.27285583 ], [ 7.19882788, 51.26967171 ], [ 7.19341258, 51.26628779 ], [ 7.18891875, 51.27084078 ] ] ] ] } },
{ "type": "Feature", "properties": { "LINE": "038", "WAYPOINT": "170", "CAM": "174", "LFDNR": "004574", "FILENAME": "038_170_174004574", "ORI": "WEST", "TYPE": "OBL" }, "geometry": { "type": "MultiPolygon", "coordinates": [ [ [ [ 7.18977614, 51.27127671 ], [ 7.19632026, 51.27330225 ], [ 7.19974264, 51.27010845 ], [ 7.19432688, 51.26673357 ], [ 7.18977614, 51.27127671 ] ] ] ] } },
{ "type": "Feature", "properties": { "LINE": "038", "WAYPOINT": "171", "CAM": "174", "LFDNR": "004575", "FILENAME": "038_171_174004575", "ORI": "WEST", "TYPE": "OBL" }, "geometry": { "type": "MultiPolygon", "coordinates": [ [ [ [ 7.19066254, 51.2717041 ], [ 7.19724941, 51.27373924 ], [ 7.20067176, 51.27054541 ], [ 7.19528382, 51.26718899 ], [ 7.19066254, 51.2717041 ] ] ] ] } },
{ "type": "Feature", "properties": { "LINE": "038", "WAYPOINT": "172", "CAM": "174", "LFDNR": "004576", "FILENAME": "038_172_174004576", "ORI": "WEST", "TYPE": "OBL" }, "geometry": { "type": "MultiPolygon", "coordinates": [ [ [ [ 7.19152208, 51.2720861 ], [ 7.19820863, 51.27414071 ], [ 7.20161627, 51.27095562 ], [ 7.19620026, 51.26758083 ], [ 7.19152208, 51.2720861 ] ] ] ] } },
{ "type": "Feature", "properties": { "LINE": "038", "WAYPOINT": "173", "CAM": "174", "LFDNR": "004577", "FILENAME": "038_173_174004577", "ORI": "WEST", "TYPE": "OBL" }, "geometry": { "type": "MultiPolygon", "coordinates": [ [ [ [ 7.19238092, 51.27248606 ], [ 7.1991815, 51.27456037 ], [ 7.20257407, 51.27139301 ], [ 7.19714432, 51.26800006 ], [ 7.19238092, 51.27248606 ] ] ] ] } },
{ "type": "Feature", "properties": { "LINE": "038", "WAYPOINT": "174", "CAM": "174", "LFDNR": "004578", "FILENAME": "038_174_174004578", "ORI": "WEST", "TYPE": "OBL" }, "geometry": { "type": "MultiPolygon", "coordinates": [ [ [ [ 7.19332539, 51.27289634 ], [ 7.20011175, 51.27497037 ], [ 7.20350464, 51.27179399 ], [ 7.19810272, 51.2684195 ], [ 7.19332539, 51.27289634 ] ] ] ] } },
{ "type": "Feature", "properties": { "LINE": "038", "WAYPOINT": "175", "CAM": "174", "LFDNR": "004579", "FILENAME": "038_175_174004579", "ORI": "WEST", "TYPE": "OBL" }, "geometry": { "type": "MultiPolygon", "coordinates": [ [ [ [ 7.19434012, 51.27334367 ], [ 7.20098399, 51.27539746 ], [ 7.20441984, 51.27222172 ], [ 7.19905974, 51.26887489 ], [ 7.19434012, 51.27334367 ] ] ] ] } },
{ "type": "Feature", "properties": { "LINE": "038", "WAYPOINT": "176", "CAM": "174", "LFDNR": "004580", "FILENAME": "038_176_174004580", "ORI": "WEST", "TYPE": "OBL" }, "geometry": { "type": "MultiPolygon", "coordinates": [ [ [ [ 7.19544013, 51.27381028 ], [ 7.20191358, 51.27582542 ], [ 7.20534939, 51.27264965 ], [ 7.19996087, 51.26929344 ], [ 7.19544013, 51.27381028 ] ] ] ] } },
{ "type": "Feature", "properties": { "LINE": "038", "WAYPOINT": "177", "CAM": "174", "LFDNR": "004581", "FILENAME": "038_177_174004581", "ORI": "WEST", "TYPE": "OBL" }, "geometry": { "type": "MultiPolygon", "coordinates": [ [ [ [ 7.1963836, 51.2742475 ], [ 7.2028575, 51.2762536 ], [ 7.206251, 51.27305917 ], [ 7.20083441, 51.26968458 ], [ 7.1963836, 51.2742475 ] ] ] ] } },
{ "type": "Feature", "properties": { "LINE": "038", "WAYPOINT": "178", "CAM": "174", "LFDNR": "004582", "FILENAME": "038_178_174004582", "ORI": "WEST", "TYPE": "OBL" }, "geometry": { "type": "MultiPolygon", "coordinates": [ [ [ [ 7.19729914, 51.27466629 ], [ 7.2038018, 51.27667278 ], [ 7.20718129, 51.27346911 ], [ 7.2017782, 51.27011276 ], [ 7.19729914, 51.27466629 ] ] ] ] } },
{ "type": "Feature", "properties": { "LINE": "038", "WAYPOINT": "179", "CAM": "174", "LFDNR": "004583", "FILENAME": "038_179_174004583", "ORI": "WEST", "TYPE": "OBL" }, "geometry": { "type": "MultiPolygon", "coordinates": [ [ [ [ 7.19818709, 51.27505767 ], [ 7.2047891, 51.27709261 ], [ 7.20812592, 51.27387927 ], [ 7.20270909, 51.27050477 ], [ 7.19818709, 51.27505767 ] ] ] ] } },
{ "type": "Feature", "properties": { "LINE": "038", "WAYPOINT": "180", "CAM": "174", "LFDNR": "004584", "FILENAME": "038_180_174004584", "ORI": "WEST", "TYPE": "OBL" }, "geometry": { "type": "MultiPolygon", "coordinates": [ [ [ [ 7.19907506, 51.27544904 ], [ 7.2057198, 51.27749358 ], [ 7.20907056, 51.27428942 ], [ 7.20363964, 51.27090576 ], [ 7.19907506, 51.27544904 ] ] ] ] } },
{ "type": "Feature", "properties": { "LINE": "038", "WAYPOINT": "181", "CAM": "174", "LFDNR": "004585", "FILENAME": "038_181_174004585", "ORI": "WEST", "TYPE": "OBL" }, "geometry": { "type": "MultiPolygon", "coordinates": [ [ [ [ 7.19989034, 51.27586627 ], [ 7.20660613, 51.27792984 ], [ 7.20998587, 51.2747171 ], [ 7.20455483, 51.27133348 ], [ 7.19989034, 51.27586627 ] ] ] ] } },
{ "type": "Feature", "properties": { "LINE": "038", "WAYPOINT": "182", "CAM": "174", "LFDNR": "004586", "FILENAME": "038_182_174004586", "ORI": "WEST", "TYPE": "OBL" }, "geometry": { "type": "MultiPolygon", "coordinates": [ [ [ [ 7.20076365, 51.2762664 ], [ 7.20750785, 51.27833934 ], [ 7.21091587, 51.27513601 ], [ 7.20547108, 51.27173423 ], [ 7.20076365, 51.2762664 ] ] ] ] } },
{ "type": "Feature", "properties": { "LINE": "039", "WAYPOINT": "173", "CAM": "170", "LFDNR": "004730", "FILENAME": "039_173_170004730", "ORI": "WEST", "TYPE": "OBL" }, "geometry": { "type": "MultiPolygon", "coordinates": [ [ [ [ 7.19625668, 51.27199728 ], [ 7.19077144, 51.26856721 ], [ 7.18663179, 51.2732155 ], [ 7.1928493, 51.27516423 ], [ 7.19625668, 51.27199728 ] ] ] ] } },
{ "type": "Feature", "properties": { "LINE": "039", "WAYPOINT": "174", "CAM": "170", "LFDNR": "004729", "FILENAME": "039_174_170004729", "ORI": "WEST", "TYPE": "OBL" }, "geometry": { "type": "MultiPolygon", "coordinates": [ [ [ [ 7.1971872, 51.27239832 ], [ 7.19170149, 51.26897727 ], [ 7.18751927, 51.27361595 ], [ 7.19386513, 51.2755846 ], [ 7.1971872, 51.27239832 ] ] ] ] } },
{ "type": "Feature", "properties": { "LINE": "039", "WAYPOINT": "175", "CAM": "170", "LFDNR": "004728", "FILENAME": "039_175_170004728", "ORI": "WEST", "TYPE": "OBL" }, "geometry": { "type": "MultiPolygon", "coordinates": [ [ [ [ 7.19813172, 51.27280856 ], [ 7.19264624, 51.26937857 ], [ 7.1883781, 51.27401595 ], [ 7.19486664, 51.27600473 ], [ 7.19813172, 51.27280856 ] ] ] ] } },
{ "type": "Feature", "properties": { "LINE": "039", "WAYPOINT": "176", "CAM": "170", "LFDNR": "004727", "FILENAME": "039_176_170004727", "ORI": "WEST", "TYPE": "OBL" }, "geometry": { "type": "MultiPolygon", "coordinates": [ [ [ [ 7.19906192, 51.27321857 ], [ 7.19360392, 51.26981602 ], [ 7.18922298, 51.27440673 ], [ 7.19582519, 51.2764242 ], [ 7.19906192, 51.27321857 ] ] ] ] } },
{ "type": "Feature", "properties": { "LINE": "039", "WAYPOINT": "177", "CAM": "170", "LFDNR": "004726", "FILENAME": "039_177_170004726", "ORI": "WEST", "TYPE": "OBL" }, "geometry": { "type": "MultiPolygon", "coordinates": [ [ [ [ 7.20003408, 51.27365619 ], [ 7.19453403, 51.27022607 ], [ 7.19006751, 51.27480649 ], [ 7.1967841, 51.27683467 ], [ 7.20003408, 51.27365619 ] ] ] ] } },
{ "type": "Feature", "properties": { "LINE": "039", "WAYPOINT": "178", "CAM": "170", "LFDNR": "004725", "FILENAME": "039_178_170004725", "ORI": "WEST", "TYPE": "OBL" }, "geometry": { "type": "MultiPolygon", "coordinates": [ [ [ [ 7.20099332, 51.27405764 ], [ 7.1954652, 51.27060914 ], [ 7.19088482, 51.27516986 ], [ 7.19770075, 51.2772265 ], [ 7.20099332, 51.27405764 ] ] ] ] } },
{ "type": "Feature", "properties": { "LINE": "039", "WAYPOINT": "179", "CAM": "170", "LFDNR": "004724", "FILENAME": "039_179_170004724", "ORI": "WEST", "TYPE": "OBL" }, "geometry": { "type": "MultiPolygon", "coordinates": [ [ [ [ 7.20195259, 51.27445908 ], [ 7.19645265, 51.27102006 ], [ 7.19185834, 51.2755716 ], [ 7.19861741, 51.27761831 ], [ 7.20195259, 51.27445908 ] ] ] ] } },
{ "type": "Feature", "properties": { "LINE": "039", "WAYPOINT": "180", "CAM": "170", "LFDNR": "004723", "FILENAME": "039_180_170004723", "ORI": "WEST", "TYPE": "OBL" }, "geometry": { "type": "MultiPolygon", "coordinates": [ [ [ [ 7.20289719, 51.27486928 ], [ 7.19741076, 51.2714485 ], [ 7.19288814, 51.27600118 ], [ 7.19956205, 51.27802854 ], [ 7.20289719, 51.27486928 ] ] ] ] } },
{ "type": "Feature", "properties": { "LINE": "039", "WAYPOINT": "181", "CAM": "170", "LFDNR": "004722", "FILENAME": "039_181_170004722", "ORI": "WEST", "TYPE": "OBL" }, "geometry": { "type": "MultiPolygon", "coordinates": [ [ [ [ 7.20384076, 51.27530644 ], [ 7.19834022, 51.27187649 ], [ 7.19398856, 51.27645883 ], [ 7.20052033, 51.27845696 ], [ 7.20384076, 51.27530644 ] ] ] ] } },
{ "type": "Feature", "properties": { "LINE": "039", "WAYPOINT": "182", "CAM": "170", "LFDNR": "004721", "FILENAME": "039_182_170004721", "ORI": "WEST", "TYPE": "OBL" }, "geometry": { "type": "MultiPolygon", "coordinates": [ [ [ [ 7.20479902, 51.27573482 ], [ 7.19931305, 51.27229615 ], [ 7.19507572, 51.27688928 ], [ 7.20143669, 51.27885774 ], [ 7.20479902, 51.27573482 ] ] ] ] } },
{ "type": "Feature", "properties": { "LINE": "039", "WAYPOINT": "183", "CAM": "170", "LFDNR": "004720", "FILENAME": "039_183_170004720", "ORI": "WEST", "TYPE": "OBL" }, "geometry": { "type": "MultiPolygon", "coordinates": [ [ [ [ 7.2057297, 51.27613579 ], [ 7.20024325, 51.27270615 ], [ 7.19600598, 51.27729931 ], [ 7.20233838, 51.27926728 ], [ 7.2057297, 51.27613579 ] ] ] ] } },
{ "type": "Feature", "properties": { "LINE": "039", "WAYPOINT": "184", "CAM": "170", "LFDNR": "004719", "FILENAME": "039_184_170004719", "ORI": "WEST", "TYPE": "OBL" }, "geometry": { "type": "MultiPolygon", "coordinates": [ [ [ [ 7.20663208, 51.27652732 ], [ 7.20117382, 51.27310715 ], [ 7.19690759, 51.2777089 ], [ 7.20325443, 51.27967704 ], [ 7.20663208, 51.27652732 ] ] ] ] } },
{ "type": "Feature", "properties": { "LINE": "039", "WAYPOINT": "185", "CAM": "170", "LFDNR": "004718", "FILENAME": "039_185_170004718", "ORI": "WEST", "TYPE": "OBL" }, "geometry": { "type": "MultiPolygon", "coordinates": [ [ [ [ 7.20757746, 51.27691951 ], [ 7.20213237, 51.27352657 ], [ 7.19783788, 51.27811892 ], [ 7.20419915, 51.28008723 ], [ 7.20757746, 51.27691951 ] ] ] ] } },
{ "type": "Feature", "properties": { "LINE": "039", "WAYPOINT": "186", "CAM": "170", "LFDNR": "004717", "FILENAME": "039_186_170004717", "ORI": "WEST", "TYPE": "OBL" }, "geometry": { "type": "MultiPolygon", "coordinates": [ [ [ [ 7.20852217, 51.27732967 ], [ 7.20309128, 51.27393699 ], [ 7.1987972, 51.27852038 ], [ 7.20515856, 51.28048865 ], [ 7.20852217, 51.27732967 ] ] ] ] } },
{ "type": "Feature", "properties": { "LINE": "040", "WAYPOINT": "183", "CAM": "174", "LFDNR": "005086", "FILENAME": "040_183_174005086", "ORI": "WEST", "TYPE": "OBL" }, "geometry": { "type": "MultiPolygon", "coordinates": [ [ [ [ 7.19065612, 51.27807108 ], [ 7.19740117, 51.28011764 ], [ 7.20061952, 51.2770196 ], [ 7.19545481, 51.27380152 ], [ 7.19065612, 51.27807108 ] ] ] ] } },
{ "type": "Feature", "properties": { "LINE": "040", "WAYPOINT": "184", "CAM": "174", "LFDNR": "005087", "FILENAME": "040_184_174005087", "ORI": "WEST", "TYPE": "OBL" }, "geometry": { "type": "MultiPolygon", "coordinates": [ [ [ [ 7.19163006, 51.27846383 ], [ 7.19833222, 51.28050968 ], [ 7.20159352, 51.27741227 ], [ 7.19641437, 51.27419401 ], [ 7.19163006, 51.27846383 ] ] ] ] } }
]
}
